{"type": "FeatureCollection", "metadata": {"note": "Authoritative Managalas Conservation Area boundary from WDPA (WDPA_WDOECM_Oct2023, WDPAID 555651673). CRS WGS84. Source: Protected Planet / WDPA, Oct 2023.", "source": "WDPA Oct2023", "crs": "EPSG:4326"}, "features": [{"type": "Feature", "properties": {"name": "Managalas", "designation": "Conservation Area", "iucn_cat": "Not Reported", "status": "Designated", "status_year": 2017, "governance": "Local communities", "gis_area_km2": 2147.0, "wdpa_id": 555651673, "iso3": "PNG", "province": "Oro (Northern)"}, "geometry": {"type": "Polygon", "coordinates": [[[148.36931799100012, -8.861702038999965], [148.37063798000008, -8.862580039999955], [148.3774539950001, -8.862580031999926], [148.3816320200001, -8.863238967999962], [148.38624901100002, -8.864117002999933], [148.39152599200008, -8.864556032999928], [148.3939450370001, -8.86455596999997], [148.39856199100007, -8.866092010999978], [148.40032098900008, -8.868506981999928], [148.40186000800009, -8.870044009999958], [148.40603797000006, -8.872239029999946], [148.41153501400004, -8.873775007999939], [148.41505302300004, -8.875311985999929], [148.41615199900002, -8.875531032999959], [148.4185710370001, -8.875751029999947], [148.4212090000001, -8.87684802299998], [148.42318800300006, -8.87992098899997], [148.4264860180001, -8.884530955999935], [148.426925965, -8.887164973999973], [148.42648600000007, -8.890456990999951], [148.42604598600008, -8.892652018999968], [148.4267059650001, -8.89748197299997], [148.42736601400009, -8.902090967999982], [148.42648603100008, -8.905603002999953], [148.42648596800007, -8.911309977999963], [148.42648602300005, -8.914821981999978], [148.42648596700008, -8.919212009999967], [148.426486016, -8.924919975999956], [148.42655096800002, -8.926081985999929], [148.42707201400003, -8.925981982999929], [148.4317090300001, -8.93781099599994], [148.43119401800004, -8.942954992999944], [148.4311940010001, -8.94604099399993], [148.43119402900004, -8.95324199099997], [148.43119403100002, -8.962499985999955], [148.431193967, -8.969186025999932], [148.4311940230001, -8.97432902099996], [148.43325402400012, -8.980500973999938], [148.43325402300002, -8.981016013999977], [148.43325398800005, -8.985644956999977], [148.4332540270001, -8.992845028999966], [148.4317249930001, -8.997043977999965], [148.43198297000004, -8.997574016999977], [148.43528097900003, -9.001525005999952], [148.45441000200003, -9.007232956999928], [148.45946696400006, -9.010745036999936], [148.4654039820001, -9.012280997999937], [148.47573801700003, -9.020841958999938], [148.48585196500005, -9.025451008999937], [148.4861990180001, -9.025363992999928], [148.48651198400012, -9.025011961999951], [148.4879240250001, -9.02493401299995], [148.49288801900002, -9.023694968999962], [148.4953070360001, -9.027426996999964], [148.49684601700005, -9.024792987999945], [148.49882498400007, -9.029183012999965], [148.49787600600007, -9.029588997999952], [148.49860502900003, -9.030060998999943], [148.49882501600007, -9.030279959999973], [148.5001440200001, -9.030500036999968], [148.50256297400006, -9.033354007999947], [148.51267703700012, -9.03752402699996], [148.51443601000005, -9.044986963999975], [148.51619499600008, -9.048938032999956], [148.51773403100003, -9.05288900499994], [148.51751397400005, -9.058595992999926], [148.51729397400004, -9.061670025999945], [148.52169198600006, -9.068913005999946], [148.52455000300006, -9.071985960999939], [148.5296070170001, -9.073961977999943], [148.53598403700005, -9.075936978999948], [148.54016096600003, -9.07791300499997], [148.5421399920001, -9.081425041999978], [148.545217997, -9.087790968999968], [148.54697702900012, -9.090425018999952], [148.54763702700006, -9.09481496099994], [148.55423302400004, -9.109960031999947], [148.55951000700009, -9.12115500699997], [148.56214899700012, -9.128179038999974], [148.56324803400003, -9.132789034999973], [148.5661060120001, -9.144642020999981], [148.5716030100001, -9.151885980999964], [148.5742420140001, -9.157372963999933], [148.57709998400003, -9.162421968999979], [148.58127802900003, -9.166592008999942], [148.5847959990001, -9.170103971999936], [148.58721396600004, -9.175811978999945], [148.5856750250001, -9.178445985999929], [148.5856750260001, -9.182177003999925], [148.58193701400012, -9.184810976999927], [148.57688001300005, -9.180859970999961], [148.57446203000006, -9.179104029999962], [148.5713829880001, -9.178885015999981], [148.56874498700006, -9.178446016999942], [148.56192902200007, -9.17690900699995], [148.5590700140001, -9.176251036999929], [148.55291398300005, -9.174934011999937], [148.54873602300006, -9.174275018999936], [148.5460980350001, -9.176031032999958], [148.54301998900007, -9.181957990999933], [148.5412609760001, -9.183932972999969], [148.53752297800008, -9.190737979999938], [148.53532400200004, -9.195785994999937], [148.5337849760001, -9.202152041999966], [148.53312496500007, -9.20983500999995], [148.53114598900004, -9.215103025999952], [148.52762800400012, -9.219931990999953], [148.524110005, -9.224761025999953], [148.52015297100002, -9.228273036999951], [148.51711102000002, -9.228924027999938], [148.51685399100006, -9.22959001299995], [148.51575497400006, -9.230468013999939], [148.51223697300009, -9.231784972999947], [148.50805901700005, -9.235735985999952], [148.50586101900012, -9.241443032999939], [148.5049809730001, -9.246271993999926], [148.50322198800006, -9.248248041999943], [148.50039902000003, -9.248381990999974], [148.4972319730001, -9.249834961999966], [148.49178899900005, -9.250442991999932], [148.48453303100007, -9.250442992999979], [148.47573802300008, -9.255271979999975], [148.47046101700005, -9.259881966999956], [148.46518396300007, -9.263174001999971], [148.4647440230001, -9.263612989999956], [148.46034597300002, -9.264930040999957], [148.45243103500002, -9.26734498999997], [148.4447349940001, -9.268223027999966], [148.43769902500003, -9.26822296399996], [148.43242201600003, -9.268222960999935], [148.4253859810001, -9.270857040999942], [148.42186796700003, -9.27590503099998], [148.42098900000008, -9.278539025999976], [148.41922998600012, -9.280076018999978], [148.4174710110001, -9.28095404499993], [148.4130729840001, -9.281832016999942], [148.40449800200008, -9.282050955999978], [148.402299007, -9.282709962999945], [148.39834200200005, -9.283149011999967], [148.39636299300003, -9.284247037999933], [148.3921850260001, -9.287758958999973], [148.391085964, -9.290831967999964], [148.39020596500006, -9.295002009999962], [148.38976698700003, -9.299392008999973], [148.39108599500003, -9.301807026999938], [148.39196498500007, -9.305319018999967], [148.39086598200004, -9.309269960999927], [148.38998602800007, -9.312562979999939], [148.38912297700006, -9.312595003999945], [148.38932699300005, -9.312781980999944], [148.38251100600007, -9.316514041999937], [148.38075200000003, -9.31892800999998], [148.37833299800002, -9.323318000999961], [148.3763539910001, -9.325293976999944], [148.37041796500012, -9.327049968999972], [148.36184198600006, -9.327049983999927], [148.35458700700008, -9.329684010999927], [148.35194799200008, -9.329684014999941], [148.34601097900008, -9.328586020999978], [148.3387560330001, -9.32836703299995], [148.33325902500007, -9.332976034999945], [148.33061997800007, -9.335829960999945], [148.32820198500008, -9.341756995999958], [148.324023989, -9.34614696899996], [148.31830698800002, -9.349658976999933], [148.31149100100004, -9.351414993999981], [148.30709398700003, -9.35251204399998], [148.29983798700005, -9.35580497199993], [148.2941210340001, -9.357560993999925], [148.29038303400012, -9.358878034999975], [148.28664498400008, -9.362170023999965], [148.28158799000005, -9.365682017999973], [148.27631100400004, -9.368974959999946], [148.27397803300005, -9.370606022999937], [148.27271797900005, -9.372490975999938], [148.2697679680001, -9.375140977999934], [148.26817597000002, -9.375339978999932], [148.2681759740001, -9.375340972999936], [148.2626790060001, -9.377097025999944], [148.25916102700012, -9.376877021999974], [148.2547630030001, -9.376218990999973], [148.2488270230001, -9.375779970999929], [148.24288999100008, -9.374242999999979], [148.238273036, -9.373365012999955], [148.23431502200003, -9.373146021999958], [148.23189597500004, -9.373584979999976], [148.2314560100001, -9.373804037999946], [148.22837803100003, -9.375120982999931], [148.22486001800007, -9.37621900399995], [148.21628499700012, -9.381048041999975], [148.20748998700003, -9.386973980999926], [148.20221301900006, -9.391363990999935], [148.1993549660001, -9.395316007999952], [148.19583703600006, -9.399266989999944], [148.19143896800006, -9.40190099299997], [148.18880096600003, -9.403217962999975], [148.1874810160001, -9.403875992999929], [148.1835239950001, -9.405852035999942], [148.18110498600004, -9.406510019999928], [148.17736701400008, -9.412437006999937], [148.17516803, -9.418802041999982], [148.17143098100007, -9.422972997999977], [148.16769302000012, -9.425826978999964], [148.16263598600005, -9.430874985999935], [148.158108996, -9.433941967999942], [148.15823803600006, -9.434825960999945], [148.15735899900005, -9.441192010999941], [148.1520820170001, -9.443825973999935], [148.14790400900006, -9.448215987999959], [148.1437259700001, -9.453264984999976], [148.13822901000003, -9.459850002999929], [148.13295197800005, -9.46489803299994], [148.129653963, -9.467751987999975], [148.12349796800004, -9.471263983999961], [148.11712101600006, -9.475215004999939], [148.11470301100007, -9.475872958999958], [148.1103050370001, -9.46840995499997], [148.10524802100008, -9.46314203299994], [148.10063101600008, -9.458312957999965], [148.09623299400005, -9.455239966999955], [148.09469400700004, -9.453044981999938], [148.09271502, -9.451947994999955], [148.0878780280001, -9.45150903299998], [148.08392003000006, -9.452167007999947], [148.07952302400008, -9.454581965999978], [148.075345007, -9.456118003999961], [148.06962799100006, -9.459630009999955], [148.06655001800004, -9.462044962999926], [148.0649839780001, -9.46204501699998], [148.0640519860001, -9.462509955999963], [148.06320503200004, -9.458043019999934], [148.06320596600006, -9.456513007999945], [148.06174901400004, -9.452597996999941], [148.06120400400005, -9.450080035999974], [148.06080699400002, -9.44789299799993], [148.0608869890001, -9.445687974999942], [148.0611240290001, -9.444441966999932], [148.05965496800002, -9.440787007999973], [148.05869597900005, -9.438519017999965], [148.05875797900012, -9.437178961999962], [148.0611919800001, -9.432726982999952], [148.06262996700002, -9.430877986999974], [148.0636680130001, -9.42853101199995], [148.0632059720001, -9.424939021999933], [148.06070996500011, -9.421728020999979], [148.06016796300003, -9.420342041999959], [148.05931700400004, -9.419222993999938], [148.05742996700008, -9.418459040999949], [148.05589596400011, -9.418040040999927], [148.05410400000005, -9.416875963999928], [148.0532380310001, -9.415726020999955], [148.052280031, -9.414114956999981], [148.05096896300006, -9.412760004999939], [148.0494670180001, -9.41170597599995], [148.0474150220001, -9.410557008999945], [148.04628199100011, -9.409037040999976], [148.04576798000005, -9.40704298999998], [148.0431310250001, -9.395760971999948], [148.04295501000001, -9.393779024999958], [148.04370701100004, -9.39253502799994], [148.0436730230001, -9.390939010999944], [148.0413079650001, -9.386067028999946], [148.038373975, -9.384206022999933], [148.03796602900002, -9.383681990999946], [148.04192398800012, -9.375998980999952], [148.04544198600001, -9.36260898699993], [148.04808100900004, -9.355365993999953], [148.04984003100003, -9.34834195999997], [148.05203796700005, -9.342634981999936], [148.05445703300006, -9.337805010999944], [148.0595139830001, -9.327049987999942], [148.06171300100004, -9.32419596099993], [148.07754403800004, -9.304441028999975], [148.0942540110001, -9.289734022999937], [148.09469401500007, -9.28797798499994], [148.10217001, -9.274148972999967], [148.10920602400006, -9.263612962999957], [148.11162496300005, -9.25746701199995], [148.114483005, -9.252417957999967], [148.1188800000001, -9.243857987999945], [148.11976002500012, -9.237052974999926], [148.1219589850001, -9.225858004999964], [148.12195896700007, -9.21356601399998], [148.12371796600007, -9.204566962999934], [148.1274560160001, -9.193371973999945], [148.12833502700005, -9.18810401099995], [148.12943400400002, -9.184811012999944], [148.13603098700003, -9.169665038999938], [148.14306699000008, -9.161543997999956], [148.15274096500002, -9.15144696799996], [148.15999703700004, -9.142666040999927], [148.16879198900006, -9.132130006999944], [148.1692319770001, -9.12795996899996], [148.1692320100001, -9.123570012999949], [148.16747299400004, -9.120715962999952], [148.1674730320001, -9.120058020999977], [148.1663730040001, -9.11830200399993], [148.16329501300004, -9.115447993999965], [148.15933700900007, -9.112814020999963], [148.15208200400002, -9.110399032999965], [148.1468049670001, -9.109081988999947], [148.1402080050001, -9.108863017999965], [148.13734998900009, -9.108863005999979], [148.13207297400004, -9.108203959999969], [148.12789502300006, -9.105351033999966], [148.12349800100003, -9.101399999999956], [148.11997998200002, -9.096350997999934], [148.1120640150001, -9.089547030999938], [148.10920597200004, -9.086473001999934], [148.10502800000006, -9.082960987999968], [148.10261000900005, -9.076596042999938], [148.105027983, -9.069133029999932], [148.10766702800004, -9.062109032999956], [148.1120639730001, -9.055304013999944], [148.11931998900002, -9.049816003999979], [148.12371799700009, -9.042791983999962], [148.13075399900004, -9.038622001999954], [148.13471098700006, -9.036426975999973], [148.13800997900012, -9.034231964999947], [148.139768999, -9.030060985999967], [148.1437060070001, -9.028405991999932], [148.1443849740001, -9.02501303899993], [148.14570402000004, -9.021720982999966], [148.14724398900012, -9.017110977999948], [148.15076203500007, -9.01381900499996], [148.15493897300007, -9.009867983999982], [148.16175497500012, -9.004819018999967], [148.16901099200004, -8.998673001999975], [148.17164996600002, -8.99691699799996], [148.17318903600005, -8.992527002999964], [148.17318898200006, -8.989015036999945], [148.17384897500006, -8.986160995999967], [148.17384900500008, -8.983747020999942], [148.17318900400005, -8.981771032999973], [148.17186997300007, -8.97869796599997], [148.17626701400002, -8.975186031999954], [148.1848420240001, -8.968380998999976], [148.18902001200001, -8.965966998999932], [148.1971549640001, -8.962015974999929], [148.20441097100002, -8.957625984999936], [148.20771003100003, -8.956528009999943], [148.20858901000008, -8.954991999999947], [148.2092489690001, -8.954332990999944], [148.21122797300006, -8.949943007999934], [148.21362898200005, -8.948806969999964], [148.21364597600007, -8.948187040999926], [148.21694397900012, -8.945114014999945], [148.21606503400005, -8.94226002199997], [148.2140859870001, -8.938529002999928], [148.2125470100001, -8.935674984999935], [148.21518499900003, -8.929089955999927], [148.2235409660001, -8.924919957999975], [148.2303569920001, -8.920749021999939], [148.2318959800001, -8.915920032999963], [148.23519400600003, -8.911530035999931], [148.2450880240001, -8.906701019999957], [148.25322398000003, -8.902749994999965], [148.2620189910001, -8.898799022999981], [148.2677360240001, -8.895286002999967], [148.26773602100002, -8.891994017999934], [148.26685598100005, -8.889139996999972], [148.26663598000005, -8.88474998199996], [148.26553702, -8.88058002699995], [148.26487701400004, -8.876847978999933], [148.2657570010001, -8.874214007999967], [148.26597701100002, -8.86982403199994], [148.2679559820001, -8.867409018999979], [148.27301302800004, -8.866750985999943], [148.2778500080001, -8.866530960999967], [148.2859850100001, -8.86653099199998], [148.2934610310001, -8.866530957999942], [148.29939796500003, -8.866751034999936], [148.30687402700005, -8.866751002999933], [148.31149101300002, -8.865873035999925], [148.3161079990001, -8.865213987999937], [148.32402399900002, -8.866530968999939], [148.32578297300006, -8.866530970999975], [148.33106003700004, -8.866531016999943], [148.33567701900006, -8.866530997999973], [148.33861096300006, -8.866113023999958], [148.33853601900012, -8.865872983999964], [148.3391950240001, -8.865434035999954], [148.343812984, -8.864556039999968], [148.34931002400003, -8.863897043999941], [148.35964398900012, -8.862141018999978], [148.36931799100012, -8.861702038999965]]]}}]}