{"type": "FeatureCollection", "metadata": {"note": "Oro (Northern) Province administrative boundary, PNG. CRS WGS84.", "provid": "OCNPNG001006", "crs": "EPSG:4326"}, "features": [{"type": "Feature", "properties": {"name": "Oro (Northern) Province", "provid": "OCNPNG001006", "iso3": "PNG", "level": "province"}, "geometry": {"type": "MultiPolygon", "coordinates": [[[[148.13417, -8.09503], [148.13439, -8.09734], [148.13588, -8.09907], [148.13265, -8.10217], [148.13242, -8.10274], [148.13241, -8.1039], [148.13356, -8.10505], [148.13529, -8.1054], [148.13552, -8.10506], [148.13701, -8.10507], [148.13839, -8.10622], [148.13873, -8.10945], [148.13953, -8.11199], [148.13952, -8.11429], [148.13836, -8.11636], [148.13777, -8.11808], [148.13777, -8.12038], [148.13891, -8.12384], [148.13947, -8.12788], [148.14096, -8.12984], [148.14096, -8.13099], [148.1421, -8.13249], [148.14348, -8.1325], [148.14786, -8.1339], [148.14924, -8.1339], [148.15096, -8.13541], [148.15188, -8.13771], [148.15187, -8.13944], [148.15129, -8.14116], [148.14978, -8.14312], [148.14921, -8.14346], [148.14783, -8.14311], [148.14496, -8.14057], [148.14346, -8.14079], [148.1423, -8.14136], [148.14091, -8.14366], [148.13998, -8.14746], [148.13997, -8.14918], [148.14054, -8.15149], [148.14261, -8.15346], [148.14778, -8.15693], [148.14974, -8.15752], [148.15146, -8.15867], [148.15146, -8.1604], [148.15295, -8.16156], [148.15294, -8.16306], [148.15428, -8.1644], [148.1549, -8.16502], [148.15523, -8.16974], [148.15924, -8.17425], [148.16062, -8.17483], [148.16442, -8.17576], [148.16556, -8.17807], [148.16521, -8.1806], [148.16382, -8.18463], [148.16346, -8.18728], [148.1638, -8.18901], [148.16379, -8.19154], [148.16321, -8.19304], [148.16343, -8.19673], [148.16319, -8.19764], [148.16318, -8.20248], [148.1634, -8.20629], [148.1643, -8.2117], [148.16544, -8.21573], [148.16682, -8.21747], [148.16831, -8.22012], [148.16737, -8.22323], [148.16737, -8.2253], [148.16794, -8.22669], [148.17024, -8.22877], [148.17115, -8.23015], [148.17114, -8.23511], [148.17171, -8.23684], [148.17286, -8.23822], [148.17424, -8.2388], [148.17596, -8.24031], [148.17768, -8.24319], [148.17825, -8.24573], [148.17881, -8.24746], [148.18145, -8.253], [148.1826, -8.25415], [148.18547, -8.25497], [148.18686, -8.25613], [148.18743, -8.25763], [148.18741, -8.2605], [148.18914, -8.26281], [148.19085, -8.26743], [148.19235, -8.26881], [148.19695, -8.27091], [148.19833, -8.27229], [148.19924, -8.27437], [148.19924, -8.27575], [148.19866, -8.2769], [148.19865, -8.27863], [148.19945, -8.28151], [148.19978, -8.28589], [148.20036, -8.28704], [148.20057, -8.29188], [148.20148, -8.29454], [148.20286, -8.29684], [148.204, -8.30088], [148.20549, -8.30342], [148.20628, -8.30722], [148.20616, -8.31044], [148.20741, -8.31356], [148.2074, -8.31702], [148.20773, -8.32335], [148.20715, -8.32508], [148.20679, -8.32704], [148.20679, -8.32854], [148.20736, -8.33165], [148.20711, -8.33545], [148.20537, -8.3412], [148.20535, -8.34754], [148.20476, -8.35007], [148.20475, -8.35444], [148.20497, -8.35733], [148.20439, -8.35928], [148.20494, -8.36769], [148.2055, -8.37058], [148.20492, -8.37403], [148.20489, -8.38348], [148.2052, -8.395], [148.20577, -8.39707], [148.20634, -8.39788], [148.20656, -8.40111], [148.2077, -8.404], [148.2077, -8.40537], [148.20919, -8.40803], [148.21264, -8.4115], [148.21379, -8.41323], [148.21689, -8.41635], [148.21976, -8.42039], [148.22481, -8.42652], [148.22642, -8.42998], [148.22641, -8.43078], [148.22835, -8.43632], [148.22985, -8.43921], [148.23007, -8.44232], [148.23099, -8.44405], [148.23156, -8.4467], [148.23407, -8.45155], [148.23523, -8.4527], [148.23568, -8.45443], [148.23637, -8.45593], [148.23612, -8.45962], [148.23439, -8.46307], [148.23288, -8.46456], [148.23092, -8.46536], [148.22654, -8.46593], [148.2248, -8.46822], [148.22341, -8.47167], [148.22305, -8.47317], [148.22304, -8.47628], [148.22361, -8.47893], [148.22453, -8.48089], [148.22568, -8.48205], [148.22741, -8.48298], [148.22856, -8.48413], [148.22797, -8.48528], [148.22705, -8.48586], [148.22474, -8.48585], [148.22359, -8.48642], [148.22104, -8.48895], [148.22047, -8.48929], [148.21954, -8.48929], [148.21884, -8.49131], [148.2193, -8.49182], [148.22182, -8.49702], [148.22355, -8.49875], [148.22527, -8.50141], [148.22699, -8.50625], [148.22963, -8.50891], [148.22963, -8.50949], [148.22755, -8.50971], [148.22559, -8.50947], [148.22329, -8.51004], [148.22236, -8.51061], [148.22155, -8.51061], [148.2204, -8.51176], [148.21773, -8.51543], [148.21715, -8.51774], [148.21714, -8.52062], [148.21656, -8.52165], [148.21688, -8.53041], [148.21744, -8.5356], [148.21824, -8.53883], [148.21915, -8.54021], [148.21972, -8.54425], [148.22051, -8.5469], [148.22108, -8.55117], [148.22314, -8.55497], [148.22394, -8.55786], [148.2306, -8.5694], [148.23554, -8.57645], [148.23699, -8.57816], [148.23772, -8.57945], [148.24381, -8.58696], [148.24554, -8.58846], [148.24749, -8.59101], [148.24979, -8.59332], [148.25071, -8.59367], [148.25762, -8.59945], [148.25958, -8.60061], [148.26419, -8.60258], [148.26649, -8.60374], [148.26799, -8.6049], [148.26914, -8.60525], [148.27029, -8.60641], [148.27202, -8.60722], [148.27317, -8.60837], [148.27547, -8.60953], [148.28008, -8.61335], [148.28238, -8.61416], [148.28319, -8.61509], [148.28584, -8.61625], [148.28838, -8.61683], [148.29011, -8.61764], [148.29794, -8.6194], [148.29875, -8.61998], [148.3014, -8.62056], [148.30205, -8.62056], [148.30602, -8.62058], [148.30775, -8.62035], [148.30914, -8.61943], [148.31087, -8.61921], [148.31353, -8.61634], [148.31468, -8.61634], [148.31583, -8.61749], [148.31698, -8.6198], [148.31755, -8.62268], [148.31951, -8.62465], [148.32274, -8.625], [148.3247, -8.62501], [148.32585, -8.62559], [148.32735, -8.62559], [148.32793, -8.62502], [148.32759, -8.62352], [148.3262, -8.62352], [148.32563, -8.62294], [148.32563, -8.62213], [148.32621, -8.62156], [148.32736, -8.62156], [148.32852, -8.62214], [148.33221, -8.621], [148.33279, -8.621], [148.33544, -8.62274], [148.33774, -8.62355], [148.3389, -8.62332], [148.34179, -8.62045], [148.34468, -8.62011], [148.34663, -8.62185], [148.34755, -8.62416], [148.34985, -8.62704], [148.35158, -8.6282], [148.35389, -8.62821], [148.35561, -8.62936], [148.35642, -8.63029], [148.35791, -8.63341], [148.36021, -8.63606], [148.36367, -8.63861], [148.36564, -8.63888], [148.36794, -8.63919], [148.37024, -8.64093], [148.37716, -8.64245], [148.38269, -8.64442], [148.38523, -8.64593], [148.3873, -8.64789], [148.38845, -8.64997], [148.3904, -8.65228], [148.39362, -8.65689], [148.39534, -8.66059], [148.39719, -8.66382], [148.39937, -8.66613], [148.40225, -8.66614], [148.40332, -8.66578], [148.4048, -8.6658], [148.40595, -8.66638], [148.40859, -8.66984], [148.40998, -8.66985], [148.41263, -8.67101], [148.41574, -8.67424], [148.41954, -8.67621], [148.42127, -8.67656], [148.42358, -8.67599], [148.42589, -8.676], [148.42727, -8.67738], [148.42958, -8.67854], [148.43338, -8.6789], [148.43535, -8.68063], [148.43684, -8.68259], [148.43799, -8.68605], [148.43798, -8.68778], [148.43935, -8.69389], [148.44027, -8.69585], [148.44049, -8.69873], [148.44107, -8.70081], [148.44337, -8.70485], [148.44947, -8.71143], [148.452, -8.71467], [148.45292, -8.7164], [148.45488, -8.71871], [148.4589, -8.72471], [148.46155, -8.7299], [148.46523, -8.73429], [148.46961, -8.73857], [148.47191, -8.73949], [148.47422, -8.74146], [148.47445, -8.74307], [148.47502, -8.74607], [148.47501, -8.74872], [148.47443, -8.7516], [148.47419, -8.75702], [148.4744, -8.76566], [148.47485, -8.7682], [148.47529, -8.77892], [148.47528, -8.78329], [148.47585, -8.78791], [148.477, -8.7916], [148.47664, -8.79367], [148.47584, -8.79505], [148.47582, -8.79886], [148.4764, -8.80001], [148.47663, -8.80139], [148.47637, -8.81096], [148.4758, -8.81269], [148.47544, -8.81672], [148.47462, -8.81983], [148.47462, -8.82386], [148.47542, -8.82675], [148.47599, -8.83113], [148.47656, -8.83343], [148.47828, -8.83805], [148.4792, -8.83978], [148.47943, -8.84289], [148.48114, -8.84785], [148.48344, -8.85212], [148.48608, -8.861], [148.48746, -8.86366], [148.48781, -8.86573], [148.48838, -8.86654], [148.48952, -8.87231], [148.48975, -8.87553], [148.49239, -8.87865], [148.4932, -8.88153], [148.4932, -8.88269], [148.49239, -8.88476], [148.49088, -8.88614], [148.49065, -8.88672], [148.4918, -8.88937], [148.49179, -8.89052], [148.49121, -8.89167], [148.48948, -8.8934], [148.48903, -8.89352], [148.48717, -8.89339], [148.48566, -8.89454], [148.48508, -8.8965], [148.48566, -8.89858], [148.48785, -8.90019], [148.4897, -8.89996], [148.49316, -8.89882], [148.49374, -8.89825], [148.49929, -8.8963], [148.5001, -8.8963], [148.50275, -8.89862], [148.50621, -8.89885], [148.50852, -8.89944], [148.50968, -8.90059], [148.51025, -8.90209], [148.5099, -8.9029], [148.50817, -8.90382], [148.50736, -8.90462], [148.50793, -8.9067], [148.50793, -8.9075], [148.50642, -8.90958], [148.50526, -8.91245], [148.50387, -8.91383], [148.5033, -8.91418], [148.50064, -8.9136], [148.49833, -8.91359], [148.49752, -8.91416], [148.49775, -8.91497], [148.50006, -8.91498], [148.50121, -8.9159], [148.50352, -8.91614], [148.50503, -8.91534], [148.50676, -8.91534], [148.50733, -8.91591], [148.50733, -8.91649], [148.50444, -8.91937], [148.50444, -8.91994], [148.50524, -8.92075], [148.50674, -8.9211], [148.50929, -8.9188], [148.51021, -8.91846], [148.51276, -8.91593], [148.51739, -8.91306], [148.51947, -8.91306], [148.52258, -8.91595], [148.52373, -8.91883], [148.52372, -8.92368], [148.52314, -8.92425], [148.52256, -8.92402], [148.5206, -8.92401], [148.51968, -8.92459], [148.51909, -8.92712], [148.51828, -8.92804], [148.51767, -8.9277], [148.51725, -8.92769], [148.51643, -8.92896], [148.5162, -8.93092], [148.51435, -8.93276], [148.51482, -8.93338], [148.51677, -8.93495], [148.5185, -8.93519], [148.51884, -8.93634], [148.51769, -8.93749], [148.51422, -8.93871], [148.51399, -8.9391], [148.51461, -8.93932], [148.51682, -8.93947], [148.51733, -8.9398], [148.51754, -8.94077], [148.5171, -8.94325], [148.51559, -8.94475], [148.51328, -8.94532], [148.50785, -8.94496], [148.50612, -8.94646], [148.50414, -8.95014], [148.50923, -8.94842], [148.51096, -8.9482], [148.51246, -8.9482], [148.51558, -8.95051], [148.51821, -8.95143], [148.52054, -8.95225], [148.5225, -8.95341], [148.524, -8.9548], [148.524, -8.95537], [148.52481, -8.9563], [148.52631, -8.95688], [148.52769, -8.95861], [148.52768, -8.9638], [148.52537, -8.96632], [148.5257, -8.97013], [148.52628, -8.97152], [148.52859, -8.97359], [148.52939, -8.97498], [148.52997, -8.97706], [148.52996, -8.97994], [148.52938, -8.98189], [148.52822, -8.98397], [148.52741, -8.98708], [148.5274, -8.99111], [148.52762, -8.99572], [148.52519, -8.99895], [148.52737, -9.00241], [148.52737, -9.00356], [148.52817, -9.0061], [148.53083, -9.00899], [148.53429, -9.0113], [148.53741, -9.01223], [148.53949, -9.01051], [148.54007, -9.01051], [148.54088, -9.01132], [148.54237, -9.01593], [148.54237, -9.01685], [148.54028, -9.01973], [148.5397, -9.02145], [148.5397, -9.02226], [148.54177, -9.02515], [148.54177, -9.02573], [148.5435, -9.02746], [148.54639, -9.02862], [148.54893, -9.0307], [148.55066, -9.03266], [148.55239, -9.03301], [148.55331, -9.03209], [148.55447, -9.03152], [148.55528, -9.03152], [148.55621, -9.0321], [148.55678, -9.03383], [148.55643, -9.03498], [148.55677, -9.03763], [148.55735, -9.03879], [148.56254, -9.04341], [148.56393, -9.04398], [148.56565, -9.04572], [148.56565, -9.04711], [148.56681, -9.0486], [148.56854, -9.04976], [148.57003, -9.05149], [148.57061, -9.05346], [148.5735, -9.05403], [148.57638, -9.05727], [148.57696, -9.05842], [148.58007, -9.06154], [148.581, -9.06189], [148.58238, -9.06328], [148.58411, -9.06616], [148.58411, -9.06709], [148.58526, -9.06882], [148.59022, -9.07252], [148.59218, -9.07517], [148.60061, -9.08326], [148.60315, -9.08522], [148.60488, -9.0858], [148.60696, -9.08754], [148.60927, -9.08869], [148.61042, -9.0887], [148.61216, -9.08962], [148.61562, -9.08986], [148.61678, -9.09078], [148.6162, -9.09159], [148.61446, -9.09158], [148.61123, -9.09042], [148.61042, -9.09042], [148.61007, -9.091], [148.6118, -9.09215], [148.61273, -9.09216], [148.61446, -9.09308], [148.61585, -9.09332], [148.61758, -9.09332], [148.61908, -9.09251], [148.62278, -9.09252], [148.62313, -9.09275], [148.62452, -9.09218], [148.62892, -9.08758], [148.62973, -9.087], [148.63146, -9.08678], [148.63262, -9.08677], [148.63377, -9.08735], [148.63759, -9.0876], [148.63897, -9.08875], [148.64128, -9.09083], [148.64301, -9.09106], [148.64394, -9.09164], [148.64509, -9.09164], [148.64625, -9.09222], [148.6526, -9.09338], [148.65457, -9.09396], [148.65731, -9.09545], [148.65803, -9.0957], [148.65738, -9.09431], [148.65572, -9.09281], [148.6503, -9.09142], [148.64856, -9.09142], [148.64683, -9.09084], [148.64452, -9.0891], [148.64163, -9.08794], [148.64071, -9.08795], [148.6399, -9.08679], [148.64005, -9.08625], [148.64048, -9.08587], [148.64279, -9.08587], [148.65145, -9.08877], [148.654, -9.09028], [148.65607, -9.09085], [148.66128, -9.09144], [148.66243, -9.09202], [148.66648, -9.0926], [148.67248, -9.09434], [148.67306, -9.09492], [148.67572, -9.0955], [148.67918, -9.09724], [148.68265, -9.0984], [148.68358, -9.09894], [148.68785, -9.10036], [148.69155, -9.10245], [148.69443, -9.10325], [148.69617, -9.10326], [148.70287, -9.10477], [148.70691, -9.10651], [148.70807, -9.10731], [148.71003, -9.10789], [148.71177, -9.10916], [148.71292, -9.10847], [148.71443, -9.10847], [148.71673, -9.10963], [148.71962, -9.11021], [148.72036, -9.11015], [148.7254, -9.1108], [148.72679, -9.11172], [148.73083, -9.11232], [148.73603, -9.11254], [148.73661, -9.11312], [148.741, -9.11313], [148.74412, -9.11256], [148.74644, -9.11314], [148.74909, -9.11349], [148.75164, -9.11349], [148.75314, -9.11292], [148.75568, -9.11257], [148.75973, -9.11258], [148.76065, -9.11292], [148.76181, -9.11408], [148.76123, -9.11489], [148.75799, -9.11488], [148.75487, -9.11545], [148.75279, -9.11522], [148.75106, -9.11545], [148.74794, -9.11544], [148.74586, -9.11487], [148.74273, -9.11463], [148.74216, -9.11486], [148.74215, -9.11543], [148.74389, -9.11717], [148.74446, -9.11809], [148.74412, -9.11982], [148.74504, -9.12063], [148.7462, -9.12063], [148.74735, -9.12006], [148.74874, -9.11983], [148.75024, -9.11983], [148.75105, -9.12041], [148.75105, -9.12179], [148.74954, -9.12409], [148.75162, -9.12525], [148.75278, -9.12525], [148.75474, -9.12687], [148.75544, -9.12618], [148.75486, -9.12295], [148.75313, -9.12156], [148.75278, -9.12064], [148.75313, -9.12006], [148.75279, -9.11926], [148.75105, -9.1181], [148.7499, -9.1181], [148.74932, -9.11752], [148.7499, -9.1166], [148.75256, -9.1166], [148.75391, -9.11692], [148.75684, -9.11719], [148.7603, -9.11696], [148.76238, -9.11604], [148.76609, -9.11605], [148.76701, -9.11662], [148.76839, -9.11663], [148.77106, -9.1149], [148.7736, -9.11375], [148.77545, -9.11375], [148.77534, -9.11237], [148.77337, -9.11237], [148.77129, -9.11317], [148.7699, -9.11351], [148.76701, -9.11316], [148.76643, -9.11259], [148.76725, -9.11178], [148.77013, -9.11179], [148.77279, -9.11087], [148.778, -9.1103], [148.77973, -9.10973], [148.7869, -9.10951], [148.79014, -9.10916], [148.79256, -9.10847], [148.7973, -9.10721], [148.79997, -9.10606], [148.80135, -9.10491], [148.80285, -9.10457], [148.80517, -9.10342], [148.80575, -9.10284], [148.8054, -9.10203], [148.80367, -9.10203], [148.80228, -9.10261], [148.80078, -9.10399], [148.79939, -9.10491], [148.79557, -9.10628], [148.79442, -9.10629], [148.79384, -9.10571], [148.79442, -9.10456], [148.79673, -9.10433], [148.79846, -9.10341], [148.80136, -9.10088], [148.80367, -9.09973], [148.80714, -9.09881], [148.81119, -9.09743], [148.81327, -9.09628], [148.81442, -9.09628], [148.81754, -9.09421], [148.8202, -9.09341], [148.82275, -9.09307], [148.82448, -9.09479], [148.82506, -9.09514], [148.82563, -9.0948], [148.82564, -9.09364], [148.82506, -9.09283], [148.82506, -9.09226], [148.82737, -9.09019], [148.83466, -9.08996], [148.83581, -9.08939], [148.83778, -9.08985], [148.8387, -9.08905], [148.84333, -9.08905], [148.84471, -9.08963], [148.84645, -9.08963], [148.84818, -9.08906], [148.85142, -9.08883], [148.85338, -9.09022], [148.85546, -9.0908], [148.85627, -9.09195], [148.8543, -9.09575], [148.85395, -9.09691], [148.85453, -9.09921], [148.85603, -9.10117], [148.85719, -9.1021], [148.85747, -9.10284], [148.85742, -9.10383], [148.85487, -9.10578], [148.85256, -9.10463], [148.85083, -9.10463], [148.85025, -9.10577], [148.85106, -9.1067], [148.85337, -9.1067], [148.85394, -9.10728], [148.85279, -9.10866], [148.85279, -9.11154], [148.85486, -9.11477], [148.85717, -9.11766], [148.85833, -9.11847], [148.85949, -9.11824], [148.85949, -9.11709], [148.85775, -9.11443], [148.85545, -9.11189], [148.85545, -9.10809], [148.8566, -9.10636], [148.85915, -9.10406], [148.85973, -9.1029], [148.8592, -9.10206], [148.85603, -9.09864], [148.85603, -9.09691], [148.85661, -9.09483], [148.858, -9.0923], [148.85951, -9.09115], [148.86361, -9.0901], [148.87342, -9.08729], [148.87515, -9.08556], [148.87631, -9.08297], [148.88079, -9.08168], [148.88411, -9.08125], [148.88614, -9.07981], [148.88903, -9.07952], [148.8896, -9.0801], [148.88989, -9.08125], [148.89148, -9.08255], [148.89624, -9.08327], [148.89711, -9.08414], [148.89399, -9.08899], [148.89278, -9.08874], [148.88816, -9.09075], [148.88806, -9.09136], [148.88844, -9.09191], [148.89221, -9.09222], [148.88988, -9.09537], [148.88757, -9.09594], [148.8844, -9.09767], [148.88468, -9.09853], [148.88599, -9.09839], [148.89133, -9.09652], [148.89335, -9.0945], [148.89422, -9.09191], [148.8948, -9.09134], [148.89567, -9.09191], [148.89552, -9.0935], [148.89422, -9.09681], [148.89451, -9.09825], [148.89595, -9.10056], [148.89595, -9.102], [148.89422, -9.10387], [148.89393, -9.10502], [148.89436, -9.10704], [148.8958, -9.11021], [148.89595, -9.11323], [148.89479, -9.11439], [148.8932, -9.1151], [148.88699, -9.11525], [148.88554, -9.11669], [148.88555, -9.11841], [148.88756, -9.1213], [148.88785, -9.12245], [148.89161, -9.12591], [148.8919, -9.12706], [148.89507, -9.12995], [148.89536, -9.13167], [148.89478, -9.13859], [148.89016, -9.14089], [148.88929, -9.14176], [148.88876, -9.14499], [148.89131, -9.14233], [148.89536, -9.14089], [148.89637, -9.1396], [148.8971, -9.12966], [148.8932, -9.12548], [148.89291, -9.12461], [148.8893, -9.12116], [148.88728, -9.11813], [148.88829, -9.11712], [148.89508, -9.11669], [148.89739, -9.11439], [148.89797, -9.11324], [148.89783, -9.11079], [148.89711, -9.10877], [148.89566, -9.10603], [148.89566, -9.10517], [148.89653, -9.1043], [148.89797, -9.10373], [148.89884, -9.10286], [148.89884, -9.10085], [148.89624, -9.09767], [148.89624, -9.09595], [148.89691, -9.09315], [148.8974, -9.09105], [148.89942, -9.08961], [148.89948, -9.08888], [148.89914, -9.08846], [148.89653, -9.08932], [148.89612, -9.08892], [148.89595, -9.08845], [148.89884, -9.08471], [148.89885, -9.08298], [148.89683, -9.08125], [148.89191, -9.07981], [148.89018, -9.07779], [148.89018, -9.07635], [148.89105, -9.07549], [148.89394, -9.07491], [148.89856, -9.0703], [148.89986, -9.0706], [148.90318, -9.07348], [148.90434, -9.07319], [148.90405, -9.07175], [148.90318, -9.07088], [148.90145, -9.07031], [148.90058, -9.06944], [148.90029, -9.06771], [148.90116, -9.06598], [148.899, -9.06325], [148.89799, -9.0631], [148.89654, -9.06368], [148.89553, -9.06267], [148.89538, -9.06109], [148.89625, -9.05993], [148.8977, -9.05964], [148.89856, -9.05878], [148.89828, -9.05561], [148.90001, -9.0536], [148.89972, -9.05187], [148.89857, -9.05043], [148.89929, -9.04942], [148.90781, -9.04899], [148.90897, -9.04813], [148.91402, -9.04683], [148.9159, -9.04669], [148.91763, -9.04785], [148.91908, -9.05418], [148.91879, -9.05476], [148.91763, -9.05562], [148.91706, -9.05677], [148.91706, -9.05778], [148.91792, -9.06196], [148.92012, -9.06387], [148.92081, -9.06225], [148.91908, -9.05937], [148.91908, -9.05735], [148.92081, -9.05505], [148.92067, -9.05202], [148.91966, -9.04928], [148.91966, -9.04756], [148.92139, -9.04669], [148.92587, -9.05044], [148.93179, -9.05419], [148.93959, -9.05506], [148.94017, -9.05563], [148.93959, -9.05679], [148.92919, -9.0562], [148.9276, -9.05433], [148.92659, -9.05447], [148.92688, -9.05519], [148.92803, -9.05649], [148.92746, -9.05736], [148.92457, -9.05793], [148.92457, -9.0588], [148.92514, -9.05937], [148.92846, -9.05894], [148.93265, -9.05764], [148.93323, -9.0588], [148.93005, -9.06283], [148.93063, -9.0637], [148.9315, -9.06341], [148.93424, -9.06067], [148.93786, -9.06053], [148.94103, -9.05794], [148.94305, -9.05794], [148.9445, -9.05909], [148.94536, -9.06053], [148.94536, -9.06399], [148.94594, -9.06457], [148.9471, -9.06399], [148.94739, -9.05952], [148.9471, -9.05823], [148.94623, -9.05708], [148.94522, -9.05664], [148.94277, -9.0565], [148.9419, -9.05563], [148.94219, -9.05448], [148.94479, -9.05275], [148.94854, -9.05247], [148.95042, -9.05275], [148.95216, -9.05232], [148.95562, -9.0506], [148.9614, -9.04959], [148.96516, -9.05031], [148.97844, -9.05176], [148.98408, -9.05306], [148.98655, -9.05502], [148.9913, -9.05449], [148.9965, -9.05767], [148.9991, -9.05796], [149.00112, -9.05968], [149.00344, -9.06257], [149.00324, -9.06339], [149.00228, -9.064], [149.0004, -9.06314], [148.9965, -9.05968], [148.9913, -9.0594], [148.99058, -9.06069], [148.98957, -9.06141], [148.9861, -9.06112], [148.98495, -9.0617], [148.98321, -9.064], [148.98321, -9.06458], [148.98422, -9.06515], [148.98625, -9.06429], [148.98783, -9.06458], [148.98841, -9.06516], [148.98783, -9.06659], [148.98899, -9.06717], [148.99014, -9.06602], [148.99072, -9.06429], [148.99188, -9.06314], [148.99419, -9.06429], [148.99665, -9.06501], [149.00142, -9.06516], [149.00286, -9.06689], [149.00257, -9.06775], [148.99881, -9.06948], [148.99853, -9.07005], [148.9991, -9.07063], [149.00112, -9.07063], [149.00199, -9.07149], [149.0017, -9.07322], [149.00257, -9.07409], [149.00315, -9.0738], [149.00372, -9.07092], [149.00632, -9.06862], [149.00719, -9.06718], [149.00719, -9.06602], [149.00661, -9.06516], [149.00517, -9.06487], [149.00459, -9.06429], [149.00517, -9.06343], [149.00834, -9.06372], [149.01109, -9.06588], [149.01285, -9.06656], [149.01427, -9.06631], [149.01972, -9.06181], [149.02308, -9.05709], [149.02481, -9.05594], [149.02813, -9.05522], [149.03117, -9.05508], [149.03984, -9.05565], [149.04272, -9.05335], [149.04461, -9.05358], [149.04908, -9.0545], [149.05471, -9.05378], [149.05832, -9.05248], [149.05878, -9.05258], [149.05919, -9.05306], [149.05933, -9.05493], [149.05966, -9.05539], [149.06006, -9.05594], [149.06107, -9.05638], [149.0654, -9.05738], [149.0667, -9.05681], [149.06699, -9.05565], [149.06526, -9.05393], [149.06381, -9.05335], [149.06208, -9.05162], [149.06121, -9.04413], [149.06186, -9.04387], [149.06236, -9.04413], [149.0641, -9.04701], [149.06439, -9.04845], [149.0654, -9.05004], [149.0667, -9.05133], [149.06814, -9.05162], [149.07017, -9.04903], [149.07132, -9.04874], [149.07219, -9.04903], [149.07335, -9.05047], [149.07566, -9.05133], [149.08042, -9.05666], [149.0823, -9.05767], [149.08288, -9.05998], [149.08548, -9.06314], [149.0875, -9.06401], [149.0901, -9.06372], [149.09079, -9.06311], [149.09068, -9.06256], [149.08895, -9.06199], [149.08736, -9.06041], [149.08606, -9.05824], [149.08577, -9.05479], [149.08461, -9.05363], [149.08288, -9.05306], [149.08172, -9.05191], [149.08028, -9.04787], [149.07854, -9.04586], [149.07768, -9.04154], [149.07941, -9.03923], [149.07991, -9.03818], [149.08201, -9.0375], [149.08316, -9.03635], [149.08316, -9.0352], [149.08172, -9.03404], [149.08056, -9.03376], [149.07941, -9.03232], [149.07941, -9.03116], [149.07984, -9.02814], [149.08056, -9.02569], [149.08142, -9.02511], [149.08402, -9.0254], [149.08605, -9.02742], [149.08749, -9.03116], [149.08836, -9.03203], [149.09327, -9.03232], [149.09385, -9.03289], [149.09414, -9.03491], [149.09645, -9.03692], [149.09732, -9.03606], [149.09616, -9.03289], [149.09645, -9.03231], [149.09616, -9.03058], [149.09312, -9.02785], [149.09096, -9.02511], [149.09095, -9.02367], [149.095, -9.02194], [149.09803, -9.01805], [149.10048, -9.01675], [149.10395, -9.01675], [149.10568, -9.0182], [149.10626, -9.01963], [149.10713, -9.0205], [149.108, -9.0205], [149.10771, -9.01805], [149.10829, -9.01733], [149.10915, -9.01704], [149.11233, -9.01964], [149.11319, -9.01963], [149.11319, -9.01848], [149.11175, -9.01704], [149.11233, -9.01416], [149.11001, -9.01359], [149.10684, -9.01157], [149.10597, -9.01157], [149.10539, -9.01099], [149.1051, -9.00955], [149.10539, -9.0084], [149.10683, -9.00696], [149.10972, -9.00581], [149.11174, -9.00753], [149.1129, -9.00782], [149.11435, -9.00638], [149.11405, -9.00119], [149.11492, -9.00033], [149.11738, -8.99961], [149.12012, -8.99947], [149.12214, -9.0009], [149.12272, -9.00379], [149.12387, -9.00494], [149.12445, -9.00494], [149.12619, -9.00321], [149.12705, -9.0035], [149.12994, -9.0058], [149.1311, -9.0058], [149.13167, -9.00523], [149.1285, -9.00061], [149.12849, -8.9986], [149.12965, -8.99745], [149.13196, -8.99687], [149.13283, -8.99615], [149.13542, -8.99284], [149.1373, -8.99211], [149.14004, -8.99197], [149.14099, -8.99303], [149.14178, -8.99485], [149.13976, -8.99715], [149.13976, -8.99831], [149.1412, -9.00033], [149.14005, -9.00407], [149.14049, -9.0045], [149.14236, -9.00551], [149.14208, -9.00638], [149.13919, -9.0081], [149.13543, -9.00868], [149.13457, -9.00954], [149.13514, -9.01041], [149.13572, -9.01041], [149.1363, -9.01127], [149.1363, -9.01272], [149.13457, -9.01444], [149.13457, -9.01588], [149.13572, -9.01588], [149.13659, -9.01502], [149.13832, -9.01473], [149.13833, -9.01559], [149.13457, -9.01848], [149.13428, -9.01963], [149.13457, -9.02078], [149.13573, -9.02136], [149.13861, -9.01905], [149.13948, -9.01934], [149.13948, -9.02006], [149.1389, -9.02092], [149.1392, -9.02337], [149.13804, -9.02654], [149.13631, -9.02985], [149.134, -9.0326], [149.1338, -9.03327], [149.134, -9.03412], [149.13545, -9.03346], [149.13977, -9.02856], [149.14066, -9.02867], [149.14122, -9.03], [149.14093, -9.03115], [149.13949, -9.03282], [149.14025, -9.03287], [149.14267, -9.03201], [149.14555, -9.02798], [149.14656, -9.02495], [149.14728, -9.02135], [149.14815, -9.02049], [149.15161, -9.01847], [149.15768, -9.01731], [149.15854, -9.01789], [149.15855, -9.02048], [149.15885, -9.02101], [149.15942, -9.02106], [149.15999, -9.02049], [149.15995, -9.01767], [149.15981, -9.0157], [149.15999, -9.01501], [149.16064, -9.01477], [149.1623, -9.01501], [149.16375, -9.01616], [149.16692, -9.02019], [149.16692, -9.02163], [149.16346, -9.02682], [149.16361, -9.02985], [149.16433, -9.03201], [149.16578, -9.03445], [149.1678, -9.03661], [149.16891, -9.03698], [149.16983, -9.0369], [149.17013, -9.03638], [149.16982, -9.03575], [149.16838, -9.03488], [149.16693, -9.03287], [149.16635, -9.02797], [149.16808, -9.02567], [149.17126, -9.02595], [149.17182, -9.02569], [149.17213, -9.02509], [149.17183, -9.02422], [149.16981, -9.02221], [149.16996, -9.02005], [149.17039, -9.01961], [149.17386, -9.0199], [149.17432, -9.01943], [149.17443, -9.01904], [149.17212, -9.01702], [149.17183, -9.01644], [149.17241, -9.01443], [149.17298, -9.01385], [149.1753, -9.01356], [149.17645, -9.01443], [149.17905, -9.01874], [149.17992, -9.01961], [149.18079, -9.01961], [149.18252, -9.02105], [149.1831, -9.02393], [149.18483, -9.0258], [149.18628, -9.0294], [149.1868, -9.02976], [149.18773, -9.02998], [149.18833, -9.02952], [149.1883, -9.02883], [149.18715, -9.02681], [149.18714, -9.02479], [149.18801, -9.02335], [149.18599, -9.02277], [149.18512, -9.02191], [149.18395, -9.0192], [149.18295, -9.01687], [149.18252, -9.01414], [149.18367, -9.0124], [149.18367, -9.01154], [149.18483, -9.01068], [149.18714, -9.01068], [149.19378, -9.01701], [149.19552, -9.01701], [149.19897, -9.0142], [149.20013, -9.0124], [149.201, -9.00721], [149.20215, -9.00635], [149.20735, -9.00635], [149.21256, -9.01095], [149.21385, -9.01124], [149.21544, -9.01095], [149.21717, -9.00951], [149.21948, -9.00922], [149.22151, -9.00951], [149.22252, -9.0108], [149.22296, -9.01412], [149.22469, -9.01584], [149.22556, -9.01584], [149.22527, -9.01296], [149.22844, -9.01036], [149.22959, -9.01037], [149.23219, -9.00777], [149.23305, -9.00316], [149.23421, -9.00316], [149.23479, -9.00373], [149.23537, -9.00604], [149.23335, -9.0095], [149.23364, -9.01065], [149.23335, -9.01094], [149.23364, -9.01353], [149.23509, -9.01569], [149.23654, -9.01699], [149.2374, -9.0167], [149.23711, -9.01526], [149.23624, -9.01439], [149.23552, -9.01223], [149.23552, -9.01079], [149.23595, -9.01036], [149.23739, -9.01065], [149.23826, -9.00993], [149.23797, -9.00806], [149.24144, -9.00892], [149.24317, -9.0069], [149.24287, -9.00272], [149.24317, -9.00142], [149.24533, -8.99969], [149.24807, -8.99825], [149.24894, -8.99825], [149.25038, -8.99911], [149.25356, -9.00257], [149.25385, -9.0066], [149.25212, -9.00891], [149.25039, -9.01035], [149.24852, -9.01511], [149.2465, -9.02231], [149.24593, -9.0275], [149.24377, -9.03167], [149.24175, -9.0334], [149.23828, -9.03283], [149.23771, -9.03341], [149.23843, -9.03643], [149.23857, -9.03917], [149.23684, -9.0409], [149.23699, -9.04191], [149.23771, -9.04263], [149.23858, -9.04234], [149.24031, -9.04003], [149.2406, -9.03773], [149.24175, -9.03657], [149.24262, -9.03657], [149.24349, -9.03744], [149.24406, -9.03744], [149.24493, -9.03484], [149.24666, -9.03369], [149.24724, -9.03138], [149.2481, -9.03081], [149.24897, -9.03138], [149.24897, -9.03397], [149.24839, -9.03484], [149.2484, -9.0357], [149.24926, -9.03657], [149.24984, -9.03657], [149.25056, -9.03469], [149.2507, -9.02706], [149.25156, -9.0259], [149.25141, -9.02317], [149.25213, -9.02101], [149.25444, -9.01755], [149.25502, -9.0138], [149.2579, -9.01207], [149.25877, -9.01207], [149.25993, -9.01437], [149.26166, -9.01582], [149.26195, -9.01639], [149.26138, -9.01769], [149.25907, -9.02057], [149.25893, -9.02143], [149.26022, -9.02258], [149.25936, -9.02648], [149.25879, -9.02734], [149.2559, -9.02879], [149.25503, -9.02965], [149.25475, -9.0308], [149.25547, -9.03167], [149.25677, -9.03109], [149.25734, -9.03109], [149.25792, -9.03195], [149.25619, -9.03426], [149.25677, -9.03512], [149.25764, -9.03512], [149.25966, -9.03224], [149.25965, -9.02907], [149.26052, -9.0282], [149.2611, -9.0282], [149.26153, -9.02892], [149.26168, -9.03195], [149.26254, -9.03252], [149.26341, -9.03195], [149.26326, -9.02662], [149.26283, -9.02446], [149.26585, -9.0125], [149.26714, -9.00947], [149.26888, -9.00832], [149.27003, -9.00832], [149.2709, -9.00918], [149.2709, -9.01091], [149.27145, -9.01146], [149.27235, -9.01178], [149.2735, -9.01091], [149.27437, -9.01091], [149.27639, -9.01379], [149.27668, -9.01753], [149.27553, -9.02128], [149.27352, -9.02388], [149.27207, -9.02445], [149.27092, -9.02589], [149.2715, -9.02906], [149.27092, -9.03021], [149.26861, -9.03223], [149.26761, -9.03439], [149.26717, -9.03627], [149.26862, -9.04001], [149.26906, -9.04027], [149.26949, -9.04001], [149.27063, -9.03425], [149.27323, -9.03165], [149.27323, -9.02877], [149.27424, -9.02791], [149.27468, -9.02791], [149.27554, -9.02906], [149.27641, -9.02877], [149.27756, -9.02473], [149.27972, -9.02228], [149.28001, -9.02142], [149.2816, -9.01983], [149.28333, -9.01983], [149.2842, -9.02098], [149.2842, -9.02214], [149.28305, -9.02415], [149.28305, -9.0253], [149.2842, -9.02646], [149.28553, -9.02609], [149.28594, -9.02559], [149.2868, -9.02041], [149.28781, -9.01911], [149.29026, -9.01723], [149.29199, -9.01694], [149.29489, -9.01867], [149.29662, -9.02068], [149.292, -9.02645], [149.29229, -9.02818], [149.29288, -9.02906], [149.29345, -9.02933], [149.29432, -9.02875], [149.2946, -9.02818], [149.29432, -9.0276], [149.29489, -9.02616], [149.29778, -9.02327], [149.29894, -9.02327], [149.30038, -9.02443], [149.30269, -9.02471], [149.30327, -9.02543], [149.30327, -9.02615], [149.29635, -9.03653], [149.29346, -9.03913], [149.29346, -9.04028], [149.29404, -9.04073], [149.2952, -9.04114], [149.29664, -9.0397], [149.29736, -9.03811], [149.3001, -9.03451], [149.30241, -9.0322], [149.30472, -9.03191], [149.30559, -9.03537], [149.30473, -9.03882], [149.30531, -9.03941], [149.30617, -9.0394], [149.30791, -9.03739], [149.30935, -9.0371], [149.31108, -9.03738], [149.31267, -9.03839], [149.31397, -9.03997], [149.31398, -9.044], [149.31312, -9.04545], [149.30994, -9.04631], [149.30734, -9.04805], [149.30373, -9.04877], [149.30301, -9.0492], [149.30301, -9.04978], [149.30387, -9.05064], [149.30648, -9.04977], [149.31182, -9.05006], [149.31572, -9.04977], [149.31659, -9.05034], [149.31659, -9.05121], [149.31486, -9.05294], [149.31313, -9.0538], [149.30908, -9.05323], [149.30706, -9.05352], [149.30648, -9.05409], [149.3069, -9.05476], [149.30735, -9.05496], [149.31211, -9.05539], [149.31284, -9.05582], [149.31241, -9.05683], [149.31154, -9.05711], [149.30649, -9.06144], [149.30669, -9.06215], [149.30735, -9.06245], [149.31328, -9.05899], [149.31732, -9.05581], [149.31919, -9.05524], [149.31943, -9.05565], [149.31919, -9.05639], [149.31588, -9.05942], [149.31313, -9.06273], [149.31285, -9.06461], [149.31227, -9.06591], [149.30967, -9.0659], [149.30967, -9.06734], [149.30881, -9.06821], [149.30736, -9.06821], [149.30592, -9.06965], [149.30535, -9.07138], [149.30419, -9.07283], [149.30275, -9.07398], [149.30159, -9.07427], [149.29928, -9.07283], [149.29783, -9.07312], [149.29668, -9.07442], [149.29668, -9.07513], [149.29726, -9.07571], [149.30073, -9.076], [149.30073, -9.07715], [149.29987, -9.07802], [149.29597, -9.07888], [149.29495, -9.07888], [149.29408, -9.07831], [149.29264, -9.07831], [149.29177, -9.07917], [149.29207, -9.07946], [149.29149, -9.08062], [149.29004, -9.08177], [149.28976, -9.0835], [149.29063, -9.08436], [149.29192, -9.08465], [149.29582, -9.08407], [149.29583, -9.08551], [149.29496, -9.08637], [149.29511, -9.08738], [149.29583, -9.0881], [149.29669, -9.08781], [149.29785, -9.08666], [149.29871, -9.08436], [149.30506, -9.07916], [149.30651, -9.07714], [149.30882, -9.07657], [149.30997, -9.07541], [149.31083, -9.07253], [149.31141, -9.07195], [149.31343, -9.07137], [149.31531, -9.07152], [149.31632, -9.07051], [149.3169, -9.06907], [149.31921, -9.06676], [149.32224, -9.06604], [149.32729, -9.0656], [149.32817, -9.06646], [149.32787, -9.06733], [149.32556, -9.06819], [149.3247, -9.06906], [149.32384, -9.07309], [149.32211, -9.07425], [149.31907, -9.07468], [149.31835, -9.07541], [149.31907, -9.07598], [149.32211, -9.07569], [149.32399, -9.07698], [149.32558, -9.07943], [149.32674, -9.08029], [149.32674, -9.08145], [149.32501, -9.0826], [149.31764, -9.0839], [149.31692, -9.08433], [149.31547, -9.08405], [149.31402, -9.0829], [149.31273, -9.08304], [149.31143, -9.08434], [149.31114, -9.08521], [149.31028, -9.08578], [149.30825, -9.08607], [149.30623, -9.08781], [149.30276, -9.0881], [149.3019, -9.08752], [149.29987, -9.08752], [149.29713, -9.08954], [149.29223, -9.092], [149.29035, -9.09387], [149.28934, -9.0943], [149.28688, -9.09445], [149.28609, -9.09513], [149.28573, -9.09589], [149.28601, -9.09639], [149.28689, -9.09704], [149.28862, -9.09704], [149.29266, -9.09416], [149.29328, -9.09401], [149.29381, -9.09415], [149.29526, -9.09617], [149.29612, -9.0953], [149.2967, -9.09329], [149.29771, -9.09199], [149.30017, -9.09041], [149.30248, -9.08983], [149.30248, -9.09098], [149.30161, -9.09213], [149.3019, -9.09328], [149.30277, -9.09328], [149.30479, -9.09155], [149.3071, -9.09126], [149.31143, -9.08866], [149.32039, -9.08808], [149.32183, -9.08923], [149.32213, -9.09183], [149.32155, -9.09298], [149.32068, -9.09356], [149.31895, -9.09384], [149.31722, -9.09586], [149.31664, -9.09615], [149.31375, -9.09558], [149.31202, -9.09788], [149.30885, -9.09933], [149.309, -9.0999], [149.30942, -9.10019], [149.31058, -9.10048], [149.31506, -9.09946], [149.31621, -9.09946], [149.31665, -9.10047], [149.31607, -9.10134], [149.31638, -9.10204], [149.31723, -9.1022], [149.32098, -9.09989], [149.32238, -9.09965], [149.323, -9.09989], [149.32301, -9.10133], [149.32214, -9.10306], [149.31998, -9.10464], [149.31969, -9.10551], [149.31868, -9.10652], [149.31666, -9.1071], [149.3155, -9.10912], [149.31492, -9.1094], [149.31261, -9.10768], [149.31088, -9.10768], [149.31001, -9.10826], [149.30539, -9.10653], [149.30279, -9.10683], [149.30163, -9.10855], [149.30077, -9.10913], [149.29788, -9.10942], [149.29643, -9.10769], [149.29527, -9.10741], [149.29325, -9.10597], [149.29181, -9.10597], [149.29181, -9.10684], [149.29412, -9.10885], [149.2936, -9.10983], [149.29239, -9.11058], [149.28603, -9.10972], [149.28372, -9.11001], [149.28199, -9.11116], [149.28011, -9.11145], [149.27809, -9.11117], [149.27621, -9.11145], [149.27505, -9.11232], [149.27029, -9.11276], [149.26899, -9.11348], [149.26899, -9.11434], [149.26957, -9.11492], [149.27144, -9.11521], [149.27376, -9.11491], [149.2765, -9.11549], [149.28242, -9.1139], [149.28632, -9.11375], [149.29022, -9.11389], [149.29153, -9.11433], [149.29355, -9.11288], [149.29528, -9.11259], [149.29557, -9.11346], [149.295, -9.11461], [149.2937, -9.11562], [149.28691, -9.11894], [149.28692, -9.12014], [149.2872, -9.12124], [149.28836, -9.12239], [149.29269, -9.12153], [149.29644, -9.11778], [149.30049, -9.11749], [149.30309, -9.11576], [149.30424, -9.11576], [149.30453, -9.11633], [149.30049, -9.12022], [149.30049, -9.12094], [149.30107, -9.12152], [149.30251, -9.1218], [149.30396, -9.12094], [149.30482, -9.11863], [149.30627, -9.11748], [149.308, -9.11748], [149.30945, -9.11863], [149.30916, -9.12108], [149.30945, -9.12468], [149.31016, -9.12498], [149.3109, -9.12468], [149.31118, -9.1218], [149.31205, -9.12036], [149.31262, -9.11978], [149.31421, -9.11935], [149.31754, -9.11977], [149.31869, -9.11862], [149.31985, -9.11487], [149.32071, -9.11401], [149.32302, -9.11401], [149.32389, -9.11487], [149.32649, -9.11458], [149.32736, -9.11516], [149.32707, -9.11833], [149.32938, -9.11861], [149.33025, -9.11976], [149.33025, -9.12063], [149.32881, -9.12207], [149.32679, -9.12351], [149.32332, -9.12381], [149.32274, -9.12467], [149.32419, -9.12582], [149.32521, -9.12582], [149.32737, -9.12668], [149.32795, -9.12639], [149.32896, -9.12654], [149.32911, -9.12697], [149.32853, -9.12755], [149.32622, -9.12812], [149.32477, -9.12956], [149.32174, -9.13], [149.31871, -9.13101], [149.31553, -9.13044], [149.31235, -9.13102], [149.31177, -9.13174], [149.31177, -9.13246], [149.31437, -9.13274], [149.31741, -9.13245], [149.3229, -9.13288], [149.32449, -9.1336], [149.32709, -9.13619], [149.3271, -9.13706], [149.32594, -9.13792], [149.32334, -9.13821], [149.32218, -9.13907], [149.32002, -9.13922], [149.31568, -9.1375], [149.31222, -9.13693], [149.31005, -9.13621], [149.30802, -9.13477], [149.30672, -9.13491], [149.30658, -9.13564], [149.30802, -9.13679], [149.3086, -9.13794], [149.30831, -9.1388], [149.30759, -9.13938], [149.30687, -9.13938], [149.3047, -9.13736], [149.30051, -9.13506], [149.29964, -9.13506], [149.29733, -9.13737], [149.2982, -9.13823], [149.30311, -9.13852], [149.30398, -9.13938], [149.30254, -9.1414], [149.30369, -9.14284], [149.30543, -9.14312], [149.31078, -9.14125], [149.31612, -9.14139], [149.31786, -9.14369], [149.31901, -9.14398], [149.32132, -9.14368], [149.32248, -9.14455], [149.32277, -9.14801], [149.32046, -9.15031], [149.32105, -9.15175], [149.32076, -9.15262], [149.32018, -9.15291], [149.31671, -9.15233], [149.31622, -9.15269], [149.31642, -9.1532], [149.31816, -9.15406], [149.3196, -9.15521], [149.31874, -9.1568], [149.31705, -9.15817], [149.31643, -9.15867], [149.31527, -9.15839], [149.31296, -9.15666], [149.31065, -9.15609], [149.30775, -9.15436], [149.30689, -9.15436], [149.30284, -9.15148], [149.30024, -9.1512], [149.2985, -9.15005], [149.29763, -9.15005], [149.29677, -9.15091], [149.29792, -9.15206], [149.30255, -9.1535], [149.30458, -9.15609], [149.30833, -9.15667], [149.31296, -9.16041], [149.31326, -9.16185], [149.3121, -9.16329], [149.31196, -9.16574], [149.31095, -9.16704], [149.30951, -9.16704], [149.30458, -9.16041], [149.30372, -9.16041], [149.30285, -9.16113], [149.30459, -9.16445], [149.30488, -9.1656], [149.30315, -9.16704], [149.30055, -9.16762], [149.29939, -9.16849], [149.29578, -9.16835], [149.2939, -9.16676], [149.29332, -9.16532], [149.28898, -9.16158], [149.28724, -9.15784], [149.28319, -9.15698], [149.28269, -9.1573], [149.28262, -9.15784], [149.28536, -9.15942], [149.28638, -9.16072], [149.28638, -9.16245], [149.2858, -9.16245], [149.28493, -9.16331], [149.28537, -9.16403], [149.28652, -9.16446], [149.29, -9.16676], [149.2913, -9.16792], [149.29246, -9.16994], [149.29275, -9.17224], [149.29102, -9.17483], [149.29015, -9.17714], [149.289, -9.178], [149.28582, -9.17743], [149.28408, -9.17887], [149.28353, -9.17854], [149.28322, -9.17801], [149.28379, -9.17397], [149.2832, -9.17328], [149.28263, -9.1734], [149.28148, -9.17484], [149.27975, -9.17427], [149.27938, -9.17427], [149.27917, -9.17484], [149.27946, -9.176], [149.27888, -9.1783], [149.27917, -9.17917], [149.27889, -9.17992], [149.2783, -9.18032], [149.27715, -9.17946], [149.27642, -9.17758], [149.27628, -9.17542], [149.27454, -9.1734], [149.2741, -9.16923], [149.27222, -9.1652], [149.27193, -9.16332], [149.2711, -9.16331], [149.27049, -9.1639], [149.27223, -9.17398], [149.27214, -9.17456], [149.27165, -9.17456], [149.27079, -9.1737], [149.26992, -9.17139], [149.26847, -9.17024], [149.26558, -9.17053], [149.26341, -9.16826], [149.26269, -9.16938], [149.26254, -9.1708], [149.26298, -9.1737], [149.26703, -9.17918], [149.26674, -9.18033], [149.26588, -9.18033], [149.26385, -9.1786], [149.26298, -9.17658], [149.26327, -9.17572], [149.2611, -9.1737], [149.26009, -9.17342], [149.25922, -9.17457], [149.25922, -9.1763], [149.26212, -9.17947], [149.26186, -9.18006], [149.26126, -9.18062], [149.25923, -9.17918], [149.2572, -9.17947], [149.25646, -9.17998], [149.25634, -9.18063], [149.25981, -9.18321], [149.25941, -9.18399], [149.25779, -9.18552], [149.25529, -9.18594], [149.25548, -9.19042], [149.2552, -9.19186], [149.25375, -9.19302], [149.25404, -9.19647], [149.25231, -9.19892], [149.25029, -9.20109], [149.24885, -9.2008], [149.24769, -9.19965], [149.24711, -9.19965], [149.24682, -9.20023], [149.2474, -9.20094], [149.2474, -9.20167], [149.24639, -9.20224], [149.24422, -9.20253], [149.24365, -9.20311], [149.24509, -9.20484], [149.24711, -9.20512], [149.24736, -9.20561], [149.24712, -9.20628], [149.24553, -9.20801], [149.24206, -9.21031], [149.23932, -9.21291], [149.23744, -9.21709], [149.23585, -9.22156], [149.23529, -9.22905], [149.23702, -9.23164], [149.23645, -9.2325], [149.23776, -9.24417], [149.2382, -9.25181], [149.23662, -9.2678], [149.23591, -9.27083], [149.23273, -9.27544], [149.23244, -9.27717], [149.23302, -9.28048], [149.23447, -9.28265], [149.23505, -9.28553], [149.23447, -9.2861], [149.23332, -9.2861], [149.231, -9.28466], [149.2284, -9.28438], [149.22666, -9.28582], [149.22262, -9.29245], [149.22291, -9.2962], [149.22205, -9.29735], [149.22118, -9.29764], [149.22003, -9.29879], [149.21974, -9.30052], [149.22148, -9.30859], [149.22264, -9.31003], [149.22235, -9.31176], [149.2199, -9.31522], [149.21484, -9.31868], [149.21093, -9.31911], [149.20992, -9.31983], [149.20935, -9.32156], [149.20848, -9.32243], [149.20414, -9.32301], [149.20096, -9.32503], [149.19836, -9.3256], [149.19489, -9.32762], [149.18998, -9.32849], [149.18651, -9.33051], [149.18507, -9.33195], [149.18391, -9.33541], [149.18073, -9.33988], [149.17943, -9.34334], [149.17828, -9.35429], [149.17713, -9.35717], [149.17641, -9.36106], [149.17714, -9.37129], [149.17994, -9.3911], [149.18092, -9.39463], [149.18178, -9.4001], [149.18323, -9.40385], [149.18382, -9.4076], [149.18628, -9.41379], [149.18961, -9.41999], [149.19236, -9.42301], [149.19352, -9.4233], [149.19612, -9.42618], [149.19619, -9.427], [149.19728, -9.42849], [149.19671, -9.43569], [149.197, -9.43713], [149.19671, -9.43944], [149.19744, -9.4439], [149.1986, -9.44621], [149.2006, -9.45255], [149.20136, -9.45528], [149.20425, -9.45817], [149.20512, -9.46105], [149.20657, -9.46306], [149.20946, -9.4622], [149.21033, -9.4622], [149.2112, -9.46277], [149.21091, -9.4645], [149.2112, -9.46594], [149.21244, -9.46793], [149.21352, -9.4694], [149.21323, -9.47372], [149.21425, -9.47473], [149.21671, -9.47487], [149.21801, -9.47602], [149.21989, -9.47689], [149.22076, -9.47804], [149.22047, -9.4815], [149.22149, -9.48265], [149.22221, -9.48265], [149.22337, -9.48178], [149.22481, -9.48179], [149.22583, -9.48337], [149.22714, -9.48956], [149.228, -9.49072], [149.2283, -9.49216], [149.23032, -9.49389], [149.23235, -9.49446], [149.23496, -9.49748], [149.23611, -9.50022], [149.23727, -9.50138], [149.24176, -9.50151], [149.24353, -9.50197], [149.24451, -9.50252], [149.24458, -9.50347], [149.24422, -9.50454], [149.24472, -9.50565], [149.24567, -9.50598], [149.24885, -9.50425], [149.25059, -9.50425], [149.25696, -9.50972], [149.25812, -9.50943], [149.25812, -9.50828], [149.25551, -9.50569], [149.25319, -9.50425], [149.25261, -9.5031], [149.25319, -9.50252], [149.25521, -9.5028], [149.25985, -9.5077], [149.26361, -9.50885], [149.26738, -9.51144], [149.27085, -9.51173], [149.27258, -9.51028], [149.27336, -9.51003], [149.27403, -9.51028], [149.27519, -9.5123], [149.27664, -9.51345], [149.27765, -9.5133], [149.27953, -9.51085], [149.28034, -9.51074], [149.28387, -9.51114], [149.28474, -9.51056], [149.28531, -9.50855], [149.28633, -9.50754], [149.28821, -9.50652], [149.29501, -9.50637], [149.30181, -9.50824], [149.30833, -9.51371], [149.30963, -9.51458], [149.31166, -9.51544], [149.3147, -9.51644], [149.32135, -9.51672], [149.32729, -9.51831], [149.3325, -9.52478], [149.33309, -9.52665], [149.3337, -9.52692], [149.33424, -9.52665], [149.33511, -9.52492], [149.33699, -9.52392], [149.34625, -9.52304], [149.34957, -9.52116], [149.35536, -9.51943], [149.35594, -9.51943], [149.36115, -9.52317], [149.36289, -9.52576], [149.36347, -9.52806], [149.36493, -9.5308], [149.3701, -9.5361], [149.3742, -9.5403], [149.37768, -9.54606], [149.38087, -9.54966], [149.38342, -9.55057], [149.38449, -9.55095], [149.38999, -9.5521], [149.39245, -9.55195], [149.39795, -9.55252], [149.40344, -9.54848], [149.40546, -9.54848], [149.40851, -9.5515], [149.4088, -9.55236], [149.41156, -9.5551], [149.41185, -9.55769], [149.41099, -9.56144], [149.41157, -9.56404], [149.41244, -9.5649], [149.41302, -9.56692], [149.41505, -9.56893], [149.41968, -9.56979], [149.41968, -9.57065], [149.41881, -9.57152], [149.41578, -9.57282], [149.41274, -9.57354], [149.41217, -9.57426], [149.41217, -9.57498], [149.41549, -9.57527], [149.41737, -9.57498], [149.42113, -9.57267], [149.42229, -9.57267], [149.42563, -9.57583], [149.42736, -9.57641], [149.43083, -9.57583], [149.43387, -9.57611], [149.43416, -9.57294], [149.43474, -9.57236], [149.43575, -9.57279], [149.43837, -9.57884], [149.43881, -9.58086], [149.43679, -9.58648], [149.43563, -9.58793], [149.43563, -9.58966], [149.44057, -9.59599], [149.44084, -9.59836], [149.44077, -9.59855], [149.05271, -9.71521], [149.05116, -9.71485], [149.04981, -9.71503], [149.0493, -9.71522], [149.04858, -9.7155], [149.0464, -9.71753], [149.04424, -9.71935], [149.04301, -9.72036], [149.04141, -9.72023], [149.04129, -9.71853], [149.04197, -9.71641], [149.04183, -9.71502], [149.03956, -9.71178], [149.03742, -9.70983], [149.03652, -9.70904], [149.03571, -9.7073], [149.03517, -9.70583], [149.03337, -9.70297], [149.03184, -9.70185], [149.03101, -9.70076], [149.03101, -9.69879], [149.0317, -9.69696], [149.03132, -9.69616], [149.0286, -9.69512], [149.02747, -9.69422], [149.02664, -9.69242], [149.02567, -9.69019], [149.02533, -9.68753], [149.0249, -9.68637], [149.02342, -9.68581], [149.02151, -9.68657], [149.01612, -9.69034], [149.01479, -9.69014], [149.01403, -9.68983], [149.01235, -9.69051], [149.01014, -9.69084], [149.00868, -9.69173], [149.00738, -9.69265], [149.00543, -9.69371], [149.00316, -9.69545], [148.9985, -9.69816], [148.99383, -9.70195], [148.99169, -9.7023], [148.99049, -9.70262], [148.98888, -9.70397], [148.98698, -9.70367], [148.98615, -9.70379], [148.98509, -9.70472], [148.98348, -9.70528], [148.9815, -9.70728], [148.98045, -9.70873], [148.97822, -9.71115], [148.97668, -9.71245], [148.97626, -9.71353], [148.97792, -9.71626], [148.97757, -9.71954], [148.97773, -9.72058], [148.97912, -9.72427], [148.97909, -9.72689], [148.97859, -9.72847], [148.97816, -9.73149], [148.97663, -9.73446], [148.97737, -9.73958], [148.97749, -9.74068], [148.97837, -9.74483], [148.97706, -9.74693], [148.97254, -9.7488], [148.97049, -9.74943], [148.9688, -9.75], [148.96613, -9.75151], [148.96507, -9.75188], [148.96337, -9.75198], [148.96261, -9.75234], [148.96243, -9.75402], [148.96193, -9.75582], [148.96096, -9.75748], [148.9603, -9.75843], [148.95863, -9.75935], [148.95808, -9.76107], [148.95792, -9.76283], [148.95836, -9.76476], [148.95859, -9.76615], [148.95824, -9.76701], [148.956, -9.76992], [148.95431, -9.77238], [148.9525, -9.7742], [148.95127, -9.77574], [148.9505, -9.77755], [148.95045, -9.77905], [148.95095, -9.78159], [148.95117, -9.78342], [148.95141, -9.78478], [148.95108, -9.78649], [148.95045, -9.78711], [148.94986, -9.78837], [148.94976, -9.78963], [148.95036, -9.7915], [148.95069, -9.79402], [148.95114, -9.79632], [148.9516, -9.79833], [148.95156, -9.80025], [148.9509, -9.80165], [148.95024, -9.80248], [148.95026, -9.80346], [148.95074, -9.80484], [148.95111, -9.80662], [148.95157, -9.80922], [148.95179, -9.81179], [148.95188, -9.8145], [148.95226, -9.81645], [148.95309, -9.81822], [148.95402, -9.81934], [148.95482, -9.8201], [148.95546, -9.82223], [148.9552, -9.82349], [148.95443, -9.82582], [148.95381, -9.82722], [148.95283, -9.82911], [148.95216, -9.83016], [148.95179, -9.83155], [148.95216, -9.83287], [148.95327, -9.83431], [148.95495, -9.83615], [148.95613, -9.83736], [148.9572, -9.83889], [148.95805, -9.84119], [148.95887, -9.84274], [148.95965, -9.8445], [148.9599, -9.84559], [148.95947, -9.84718], [148.9604, -9.84968], [148.96099, -9.85152], [148.96142, -9.85289], [148.96365, -9.85485], [148.96483, -9.85618], [148.96582, -9.85696], [148.96846, -9.85704], [148.97065, -9.85647], [148.97191, -9.85546], [148.97358, -9.85545], [148.97529, -9.85672], [148.97556, -9.8579], [148.97575, -9.85975], [148.97604, -9.86134], [148.97769, -9.86262], [148.97945, -9.86323], [148.98084, -9.86389], [148.98157, -9.86489], [148.98186, -9.86743], [148.9827, -9.86766], [148.98511, -9.86711], [148.98626, -9.8671], [148.98737, -9.86823], [148.98802, -9.86895], [148.98801, -9.87039], [148.98778, -9.87133], [148.98671, -9.87203], [148.98532, -9.87264], [148.9845, -9.8734], [148.98418, -9.87441], [148.98378, -9.87554], [148.98313, -9.87559], [148.98249, -9.87519], [148.98193, -9.8758], [148.98225, -9.87655], [148.98319, -9.87779], [148.98378, -9.87937], [148.98426, -9.87993], [148.98494, -9.8811], [148.98545, -9.88207], [148.98529, -9.88354], [148.9845, -9.88472], [148.98334, -9.88606], [148.98234, -9.88746], [148.98081, -9.88928], [148.98012, -9.89042], [148.97956, -9.89102], [148.98067, -9.89206], [148.98301, -9.89406], [148.98434, -9.89576], [148.98406, -9.89777], [148.98401, -9.89979], [148.98428, -9.90148], [148.9856, -9.90314], [148.98621, -9.90588], [148.98681, -9.90811], [148.98631, -9.91042], [148.98518, -9.91293], [148.98422, -9.91423], [148.9834, -9.91524], [148.98198, -9.91553], [148.9811, -9.91615], [148.98069, -9.91763], [148.97985, -9.91921], [148.97908, -9.92043], [148.97609, -9.91883], [148.97521, -9.91742], [148.97449, -9.91704], [148.97072, -9.91679], [148.96986, -9.91594], [148.96931, -9.91564], [148.96792, -9.91553], [148.96668, -9.91558], [148.9659, -9.9156], [148.96459, -9.91517], [148.96315, -9.91395], [148.96171, -9.91315], [148.96053, -9.91326], [148.95832, -9.91372], [148.95671, -9.91377], [148.95365, -9.91147], [148.95221, -9.91149], [148.95064, -9.91193], [148.94921, -9.91278], [148.94816, -9.91347], [148.94658, -9.91345], [148.94493, -9.91264], [148.9441, -9.91352], [148.9434, -9.91556], [148.94321, -9.91739], [148.94321, -9.91861], [148.94271, -9.92036], [148.94225, -9.92162], [148.94318, -9.92586], [148.94279, -9.92745], [148.94195, -9.92847], [148.94049, -9.92903], [148.93955, -9.92831], [148.93793, -9.92802], [148.93785, -9.92659], [148.93673, -9.92531], [148.93663, -9.92328], [148.93623, -9.92242], [148.93384, -9.92542], [148.9316, -9.92614], [148.92956, -9.92541], [148.92734, -9.92515], [148.92648, -9.92363], [148.92444, -9.92394], [148.92259, -9.92338], [148.9212, -9.92339], [148.92025, -9.9226], [148.91926, -9.92207], [148.91773, -9.92232], [148.91649, -9.92346], [148.91405, -9.92402], [148.91187, -9.92438], [148.90914, -9.92381], [148.90714, -9.92388], [148.905, -9.92303], [148.90244, -9.92212], [148.89796, -9.92344], [148.89508, -9.92432], [148.8921, -9.92443], [148.89033, -9.9256], [148.88847, -9.92719], [148.88844, -9.92872], [148.88687, -9.93002], [148.88396, -9.93149], [148.88172, -9.93257], [148.88032, -9.93403], [148.87985, -9.93541], [148.87865, -9.93647], [148.87734, -9.93679], [148.8759, -9.93861], [148.8743, -9.93875], [148.87216, -9.9392], [148.8708, -9.93719], [148.87102, -9.93635], [148.87141, -9.93533], [148.87142, -9.93259], [148.87075, -9.93221], [148.86871, -9.93205], [148.8668, -9.93126], [148.86448, -9.92949], [148.86312, -9.929], [148.86059, -9.92944], [148.85911, -9.9303], [148.85652, -9.93106], [148.85477, -9.93107], [148.85297, -9.93205], [148.85022, -9.93221], [148.84901, -9.93195], [148.84692, -9.93299], [148.84484, -9.93363], [148.84311, -9.93351], [148.84236, -9.93363], [148.84126, -9.93345], [148.84031, -9.93359], [148.83774, -9.93567], [148.83692, -9.93659], [148.83751, -9.93749], [148.8394, -9.93781], [148.84111, -9.93864], [148.84268, -9.9406], [148.84323, -9.94164], [148.84262, -9.94266], [148.84199, -9.94346], [148.84269, -9.94472], [148.84361, -9.94622], [148.84374, -9.94734], [148.84143, -9.94919], [148.84043, -9.95026], [148.839, -9.95168], [148.83759, -9.95316], [148.83606, -9.95434], [148.83526, -9.95537], [148.83507, -9.95701], [148.83528, -9.95841], [148.83579, -9.96006], [148.83595, -9.96255], [148.83555, -9.96499], [148.83491, -9.96692], [148.83363, -9.96913], [148.83189, -9.97166], [148.83067, -9.97224], [148.82917, -9.97227], [148.82728, -9.97294], [148.82582, -9.97334], [148.82298, -9.9728], [148.82111, -9.9723], [148.81957, -9.97337], [148.81808, -9.97428], [148.81586, -9.97463], [148.81388, -9.97541], [148.81338, -9.97642], [148.81261, -9.97696], [148.81002, -9.97548], [148.80762, -9.97494], [148.80514, -9.9749], [148.80174, -9.97411], [148.80079, -9.97203], [148.80073, -9.96922], [148.79857, -9.96552], [148.79628, -9.96327], [148.79526, -9.9611], [148.79415, -9.96027], [148.79355, -9.96001], [148.7935, -9.9577], [148.79252, -9.95573], [148.79064, -9.95486], [148.79019, -9.95393], [148.79104, -9.95019], [148.79312, -9.9452], [148.79449, -9.94256], [148.79428, -9.93974], [148.79341, -9.93704], [148.79251, -9.93652], [148.79061, -9.9368], [148.78805, -9.93666], [148.78675, -9.93541], [148.78641, -9.93489], [148.7844, -9.93513], [148.78248, -9.93414], [148.78119, -9.93268], [148.77984, -9.93225], [148.77762, -9.93422], [148.77516, -9.93591], [148.77468, -9.93864], [148.77258, -9.94089], [148.77088, -9.94226], [148.76994, -9.94496], [148.76831, -9.94666], [148.75986, -9.9493], [148.7565, -9.94933], [148.7511, -9.94649], [148.74958, -9.94609], [148.74852, -9.94655], [148.74726, -9.94571], [148.74557, -9.9448], [148.74362, -9.94516], [148.74245, -9.94614], [148.73893, -9.94539], [148.73649, -9.9447], [148.7348, -9.94427], [148.73367, -9.94276], [148.73304, -9.94133], [148.73213, -9.94044], [148.73106, -9.93942], [148.73075, -9.93798], [148.73031, -9.93726], [148.72909, -9.93723], [148.72491, -9.93723], [148.72305, -9.9368], [148.72224, -9.93611], [148.71948, -9.93811], [148.71833, -9.93907], [148.71553, -9.93951], [148.71297, -9.94046], [148.71126, -9.94136], [148.70683, -9.93926], [148.70668, -9.9373], [148.70297, -9.93299], [148.70078, -9.93168], [148.69765, -9.93082], [148.69523, -9.92692], [148.69632, -9.92301], [148.69705, -9.92165], [148.69638, -9.91948], [148.69357, -9.91645], [148.68946, -9.91342], [148.68832, -9.91254], [148.68578, -9.91278], [148.68364, -9.91386], [148.67957, -9.9142], [148.67365, -9.9135], [148.66854, -9.91304], [148.66647, -9.91228], [148.66353, -9.90995], [148.66068, -9.90878], [148.66027, -9.90745], [148.65696, -9.9043], [148.65681, -9.90285], [148.65516, -9.90306], [148.65196, -9.90023], [148.64879, -9.89859], [148.64669, -9.89763], [148.64531, -9.89598], [148.64312, -9.89273], [148.64088, -9.89048], [148.63983, -9.88992], [148.63781, -9.88989], [148.63626, -9.88789], [148.63386, -9.88618], [148.63164, -9.88475], [148.62926, -9.88454], [148.62732, -9.88507], [148.6243, -9.88693], [148.62161, -9.88896], [148.61915, -9.88913], [148.6158, -9.89022], [148.61409, -9.89104], [148.61293, -9.89041], [148.61209, -9.89112], [148.61079, -9.89164], [148.60782, -9.89171], [148.60666, -9.89232], [148.60365, -9.89388], [148.6027, -9.89275], [148.59919, -9.89112], [148.59603, -9.89029], [148.59442, -9.88997], [148.59279, -9.89027], [148.59092, -9.89053], [148.58862, -9.88778], [148.5876, -9.88513], [148.58681, -9.88366], [148.58482, -9.88151], [148.58242, -9.88141], [148.58022, -9.88207], [148.58015, -9.88125], [148.5801, -9.87884], [148.57823, -9.8756], [148.57532, -9.87449], [148.57254, -9.87455], [148.56963, -9.87435], [148.56813, -9.87351], [148.56798, -9.87196], [148.56836, -9.8696], [148.56833, -9.86835], [148.56625, -9.86674], [148.56568, -9.86497], [148.56568, -9.86213], [148.56529, -9.86051], [148.56298, -9.85949], [148.55774, -9.85817], [148.55433, -9.85681], [148.55101, -9.85642], [148.54749, -9.85541], [148.54535, -9.85396], [148.54392, -9.85282], [148.54212, -9.85281], [148.53889, -9.85352], [148.53722, -9.85458], [148.53633, -9.85396], [148.53507, -9.85221], [148.53339, -9.85154], [148.53282, -9.84982], [148.53508, -9.84562], [148.5351, -9.8425], [148.53476, -9.84095], [148.53524, -9.83922], [148.5338, -9.83734], [148.53162, -9.83501], [148.53095, -9.83376], [148.53242, -9.83086], [148.53325, -9.82947], [148.533, -9.82821], [148.53103, -9.82746], [148.52946, -9.82656], [148.52844, -9.82577], [148.52608, -9.82538], [148.52433, -9.82479], [148.52222, -9.82522], [148.51944, -9.82316], [148.51862, -9.8216], [148.51702, -9.82179], [148.51521, -9.82085], [148.51291, -9.82123], [148.51174, -9.8209], [148.51165, -9.81908], [148.51129, -9.81812], [148.5101, -9.81801], [148.50911, -9.81849], [148.50753, -9.81888], [148.50589, -9.81892], [148.50368, -9.81989], [148.50149, -9.82058], [148.50039, -9.81981], [148.49561, -9.82278], [148.49423, -9.82331], [148.49335, -9.82318], [148.49244, -9.82281], [148.49114, -9.82123], [148.49009, -9.82032], [148.48893, -9.81967], [148.48724, -9.81856], [148.48553, -9.81692], [148.48297, -9.81456], [148.48259, -9.81367], [148.48343, -9.81231], [148.48529, -9.81038], [148.48754, -9.80755], [148.48865, -9.80628], [148.48961, -9.80541], [148.48965, -9.80446], [148.48969, -9.8028], [148.49002, -9.80193], [148.4906, -9.80131], [148.49095, -9.80034], [148.49058, -9.79849], [148.48895, -9.79513], [148.48894, -9.79418], [148.48948, -9.79349], [148.49058, -9.79229], [148.49135, -9.79046], [148.49137, -9.78915], [148.4906, -9.78749], [148.48894, -9.78601], [148.48497, -9.78321], [148.48353, -9.78184], [148.48201, -9.78075], [148.48068, -9.77865], [148.48007, -9.77718], [148.47929, -9.7764], [148.47715, -9.77574], [148.475, -9.77542], [148.47392, -9.77451], [148.47238, -9.77202], [148.47158, -9.77095], [148.46906, -9.76936], [148.46787, -9.76786], [148.4671, -9.76691], [148.46582, -9.76534], [148.46321, -9.76338], [148.46048, -9.76209], [148.4584, -9.76106], [148.45465, -9.75978], [148.45134, -9.75796], [148.44849, -9.75566], [148.4477, -9.75341], [148.44694, -9.75159], [148.44619, -9.75078], [148.44458, -9.75076], [148.44278, -9.7516], [148.4406, -9.75279], [148.43895, -9.75397], [148.43758, -9.7545], [148.43579, -9.75443], [148.43417, -9.75384], [148.43052, -9.75066], [148.42934, -9.75015], [148.42747, -9.74956], [148.42621, -9.74952], [148.4235, -9.74875], [148.422, -9.74802], [148.41971, -9.74722], [148.41792, -9.74687], [148.41679, -9.74637], [148.41541, -9.74473], [148.41344, -9.74337], [148.41149, -9.74219], [148.4094, -9.74049], [148.40788, -9.73892], [148.4066, -9.73805], [148.40358, -9.73697], [148.40213, -9.73654], [148.40134, -9.73579], [148.40084, -9.7335], [148.40039, -9.73213], [148.4005, -9.73113], [148.39884, -9.72968], [148.3966, -9.72859], [148.39473, -9.72726], [148.39377, -9.72671], [148.39268, -9.72672], [148.39057, -9.72865], [148.38897, -9.7303], [148.38683, -9.73097], [148.38493, -9.73162], [148.38178, -9.7313], [148.3808, -9.73187], [148.38001, -9.73405], [148.37957, -9.7355], [148.37941, -9.73766], [148.3792, -9.73936], [148.37925, -9.74112], [148.37888, -9.74233], [148.37821, -9.74395], [148.37634, -9.74591], [148.37573, -9.74774], [148.37528, -9.74935], [148.37363, -9.75106], [148.37208, -9.75083], [148.3709, -9.7502], [148.36824, -9.75112], [148.36664, -9.75248], [148.36548, -9.75381], [148.36368, -9.75513], [148.36187, -9.75649], [148.36157, -9.75746], [148.36151, -9.759], [148.36141, -9.75997], [148.36066, -9.76016], [148.35943, -9.75808], [148.35884, -9.75702], [148.35695, -9.75599], [148.35626, -9.75467], [148.35519, -9.7526], [148.35402, -9.75076], [148.35294, -9.74935], [148.35138, -9.74824], [148.35002, -9.74666], [148.3486, -9.74611], [148.34665, -9.74602], [148.34428, -9.74643], [148.34392, -9.74833], [148.34348, -9.74978], [148.34249, -9.75132], [148.34133, -9.75235], [148.3404, -9.75328], [148.33977, -9.75435], [148.33816, -9.75486], [148.33692, -9.75467], [148.33632, -9.75517], [148.33638, -9.75631], [148.33638, -9.75713], [148.33582, -9.75711], [148.334, -9.75623], [148.33293, -9.75465], [148.33158, -9.75387], [148.33016, -9.75363], [148.32795, -9.75593], [148.32706, -9.75686], [148.32582, -9.75689], [148.32533, -9.75633], [148.32522, -9.75486], [148.32445, -9.75278], [148.3252, -9.75133], [148.32522, -9.75041], [148.32506, -9.74883], [148.32542, -9.74776], [148.32668, -9.74685], [148.32659, -9.7453], [148.3253, -9.7415], [148.32459, -9.74093], [148.32261, -9.74189], [148.32117, -9.74295], [148.31965, -9.74188], [148.31906, -9.74105], [148.31805, -9.74102], [148.31719, -9.74187], [148.31596, -9.74152], [148.31381, -9.74075], [148.31234, -9.73974], [148.31052, -9.73861], [148.30908, -9.73566], [148.30799, -9.73331], [148.30786, -9.73213], [148.30737, -9.73167], [148.3062, -9.73251], [148.30428, -9.73213], [148.30271, -9.7309], [148.30246, -9.73216], [148.30188, -9.73382], [148.30033, -9.73526], [148.29852, -9.73703], [148.29729, -9.73831], [148.29609, -9.73992], [148.2936, -9.74081], [148.2924, -9.74158], [148.28989, -9.74152], [148.28755, -9.7418], [148.28459, -9.74252], [148.28474, -9.74358], [148.28487, -9.74484], [148.2843, -9.74629], [148.28326, -9.7477], [148.28199, -9.74795], [148.2816, -9.74881], [148.28015, -9.74906], [148.27946, -9.74983], [148.27776, -9.7502], [148.27717, -9.75081], [148.27546, -9.75146], [148.27392, -9.75141], [148.2733, -9.75045], [148.26914, -9.74988], [148.26791, -9.75015], [148.26663, -9.75007], [148.26556, -9.749], [148.26484, -9.74801], [148.26214, -9.74696], [148.26081, -9.74552], [148.25934, -9.74394], [148.25521, -9.74075], [148.25375, -9.73912], [148.25251, -9.73765], [148.25054, -9.73635], [148.2487, -9.73441], [148.24771, -9.73261], [148.24764, -9.73137], [148.24859, -9.7282], [148.24872, -9.72603], [148.24787, -9.7248], [148.24749, -9.72348], [148.24793, -9.72123], [148.24816, -9.71971], [148.24734, -9.71869], [148.24528, -9.71738], [148.24421, -9.71574], [148.24355, -9.71508], [148.24241, -9.71491], [148.23997, -9.71503], [148.23683, -9.7155], [148.23576, -9.71524], [148.23539, -9.71384], [148.23512, -9.71239], [148.23499, -9.71127], [148.2372, -9.7095], [148.23835, -9.70809], [148.23813, -9.70733], [148.23699, -9.7061], [148.23578, -9.70504], [148.23474, -9.70431], [148.23351, -9.70396], [148.23194, -9.70249], [148.2312, -9.70094], [148.22922, -9.6996], [148.22706, -9.69848], [148.22564, -9.69797], [148.22405, -9.69587], [148.22322, -9.69462], [148.22263, -9.6928], [148.22076, -9.68978], [148.22095, -9.68919], [148.22245, -9.6868], [148.22442, -9.68566], [148.22807, -9.68202], [148.22747, -9.68019], [148.22693, -9.67904], [148.22703, -9.67784], [148.22549, -9.67546], [148.22629, -9.67307], [148.22698, -9.67125], [148.22768, -9.66994], [148.2274, -9.66868], [148.22559, -9.66846], [148.22346, -9.66559], [148.22141, -9.6633], [148.21807, -9.65954], [148.21457, -9.65791], [148.21289, -9.65642], [148.21083, -9.6553], [148.2083, -9.65452], [148.20561, -9.65424], [148.20363, -9.65404], [148.20105, -9.654], [148.19934, -9.65353], [148.19784, -9.65166], [148.19558, -9.65053], [148.19409, -9.64862], [148.19157, -9.64785], [148.18974, -9.64571], [148.1884, -9.64423], [148.18667, -9.64295], [148.18488, -9.63953], [148.18458, -9.63791], [148.18488, -9.63634], [148.18447, -9.63443], [148.18218, -9.63281], [148.18101, -9.63117], [148.17874, -9.63005], [148.17666, -9.62964], [148.17436, -9.62847], [148.17281, -9.62838], [148.17044, -9.6264], [148.16938, -9.62367], [148.16823, -9.62151], [148.16726, -9.61965], [148.16491, -9.6183], [148.16331, -9.61771], [148.16193, -9.62001], [148.16055, -9.62062], [148.15948, -9.62063], [148.15872, -9.62164], [148.15558, -9.62453], [148.15432, -9.62576], [148.15392, -9.62704], [148.15361, -9.62782], [148.15288, -9.62769], [148.15123, -9.6255], [148.15021, -9.62442], [148.14755, -9.62311], [148.14458, -9.62123], [148.14303, -9.62161], [148.14183, -9.62146], [148.14019, -9.62014], [148.13781, -9.61907], [148.13546, -9.618], [148.1334, -9.6177], [148.13098, -9.61675], [148.12932, -9.61532], [148.12796, -9.6138], [148.1201, -9.61298], [148.11854, -9.61471], [148.11684, -9.61526], [148.11541, -9.61594], [148.1143, -9.61669], [148.11331, -9.61672], [148.11216, -9.615], [148.11121, -9.61364], [148.11086, -9.61206], [148.11105, -9.60994], [148.11072, -9.60909], [148.10849, -9.60909], [148.10739, -9.60854], [148.10582, -9.60672], [148.10461, -9.60459], [148.1039, -9.60239], [148.10373, -9.60081], [148.10384, -9.59792], [148.10349, -9.59568], [148.1036, -9.59382], [148.09939, -9.58997], [148.09815, -9.58963], [148.09637, -9.58995], [148.09418, -9.59016], [148.08817, -9.59275], [148.08629, -9.59177], [148.08548, -9.59117], [148.08389, -9.59054], [148.08321, -9.58931], [148.083, -9.58775], [148.0813, -9.58515], [148.07908, -9.58228], [148.07734, -9.58025], [148.07484, -9.57886], [148.07308, -9.57731], [148.07188, -9.57552], [148.07133, -9.57364], [148.06947, -9.57126], [148.06816, -9.56868], [148.06776, -9.56587], [148.06656, -9.56395], [148.06494, -9.56291], [148.06235, -9.5625], [148.0572, -9.5598], [148.05641, -9.55954], [148.05576, -9.56216], [148.05566, -9.56368], [148.05443, -9.56469], [148.05354, -9.56576], [148.05181, -9.56635], [148.04922, -9.56695], [148.04827, -9.56604], [148.0474, -9.56381], [148.04601, -9.56208], [148.04421, -9.5614], [148.0426, -9.55916], [148.04273, -9.55806], [148.04167, -9.55702], [148.03962, -9.55618], [148.03919, -9.55455], [148.03925, -9.55299], [148.03791, -9.55023], [148.03769, -9.54917], [148.03799, -9.54871], [148.03734, -9.54616], [148.03788, -9.54384], [148.0372, -9.54181], [148.03743, -9.54044], [148.0383, -9.5398], [148.03831, -9.53749], [148.03673, -9.53602], [148.03574, -9.53421], [148.0361, -9.53198], [148.03645, -9.52743], [148.03434, -9.52749], [148.03314, -9.52693], [148.03198, -9.52636], [148.03017, -9.52574], [148.02908, -9.52384], [148.02882, -9.52215], [148.02836, -9.52031], [148.02649, -9.51865], [148.02476, -9.51774], [148.02363, -9.51616], [148.02158, -9.51479], [148.02036, -9.51273], [148.01998, -9.51102], [148.02071, -9.50828], [148.02222, -9.50642], [148.02308, -9.50451], [148.0236, -9.50342], [148.02455, -9.50215], [148.02577, -9.50203], [148.02955, -9.50205], [148.03127, -9.50237], [148.03186, -9.50125], [148.03236, -9.50001], [148.03474, -9.49916], [148.03583, -9.49846], [148.03593, -9.49769], [148.04973, -9.49846], [148.04911, -9.49746], [148.04807, -9.49691], [148.04701, -9.49634], [148.04607, -9.49634], [148.04514, -9.49659], [148.04415, -9.49664], [148.04306, -9.49564], [148.04241, -9.49413], [148.0417, -9.49233], [148.04269, -9.48958], [148.04362, -9.48799], [148.04309, -9.48633], [148.04271, -9.48437], [148.04329, -9.48325], [148.04564, -9.48304], [148.04802, -9.48173], [148.0501, -9.48096], [148.05117, -9.48098], [148.05352, -9.48138], [148.05421, -9.48116], [148.05542, -9.47895], [148.05525, -9.47728], [148.05482, -9.47603], [148.05607, -9.47337], [148.05769, -9.47157], [148.058, -9.47024], [148.05784, -9.46858], [148.05811, -9.46761], [148.05896, -9.46719], [148.06085, -9.46722], [148.06266, -9.46697], [148.06373, -9.46594], [148.0643, -9.46376], [148.06533, -9.46242], [148.06422, -9.45659], [148.06422, -9.45506], [148.06277, -9.45115], [148.06222, -9.44863], [148.06182, -9.44644], [148.0619, -9.44424], [148.06214, -9.44299], [148.06067, -9.43933], [148.05971, -9.43707], [148.05977, -9.43573], [148.06221, -9.43127], [148.06365, -9.42943], [148.06468, -9.42708], [148.06422, -9.42349], [148.06173, -9.42028], [148.06118, -9.41889], [148.06033, -9.41777], [148.05845, -9.41701], [148.05691, -9.41659], [148.05512, -9.41542], [148.05425, -9.41427], [148.0533, -9.41266], [148.05199, -9.41131], [148.05048, -9.41025], [148.04843, -9.40911], [148.0473, -9.40758], [148.04678, -9.40559], [148.04415, -9.39431], [148.04397, -9.39233], [148.04472, -9.39108], [148.04469, -9.38949], [148.04233, -9.38462], [148.0374, -9.38149], [148.03676, -9.38018], [148.03618, -9.37908], [148.03534, -9.37804], [148.03405, -9.37745], [148.03164, -9.37681], [148.0293, -9.3762], [148.02627, -9.37619], [148.02361, -9.37613], [148.02136, -9.37565], [148.0198, -9.3752], [148.01737, -9.37528], [148.01493, -9.37568], [148.01421, -9.37594], [148.01398, -9.37716], [148.0135, -9.37771], [148.00751, -9.37707], [148.0064, -9.37622], [148.00587, -9.37512], [148.00554, -9.37333], [148.00476, -9.37225], [148.00413, -9.37099], [148.00386, -9.36873], [148.00342, -9.36696], [148.00298, -9.3657], [148.00178, -9.36463], [148.00074, -9.36337], [147.99947, -9.36186], [147.99808, -9.36067], [147.99684, -9.35953], [147.9953, -9.35813], [147.99357, -9.35713], [147.99218, -9.35571], [147.99144, -9.35499], [147.98997, -9.35341], [147.98876, -9.35217], [147.98762, -9.35103], [147.98662, -9.349], [147.98558, -9.3472], [147.98465, -9.3446], [147.98427, -9.34251], [147.98374, -9.34125], [147.98345, -9.33921], [147.98404, -9.33753], [147.98503, -9.33608], [147.98636, -9.33459], [147.98783, -9.3332], [147.98921, -9.33197], [147.99076, -9.33009], [147.99108, -9.32856], [147.99063, -9.32597], [147.98996, -9.32337], [147.98935, -9.32024], [147.98938, -9.31707], [147.98946, -9.31462], [147.99013, -9.31226], [147.99037, -9.3106], [147.98977, -9.30859], [147.98881, -9.30707], [147.98722, -9.3053], [147.9858, -9.30442], [147.98394, -9.30267], [147.98273, -9.30198], [147.98033, -9.3011], [147.97817, -9.30014], [147.97598, -9.29809], [147.97479, -9.29634], [147.97342, -9.29435], [147.9723, -9.29314], [147.97142, -9.29177], [147.97065, -9.29007], [147.96913, -9.28918], [147.96728, -9.28856], [147.9659, -9.28868], [147.96394, -9.28935], [147.96179, -9.2902], [147.95997, -9.29015], [147.95579, -9.28881], [147.9518, -9.28611], [147.95055, -9.2857], [147.94831, -9.28634], [147.94666, -9.28742], [147.94513, -9.28822], [147.94343, -9.28875], [147.94073, -9.28875], [147.93738, -9.28792], [147.9359, -9.28758], [147.93334, -9.28779], [147.9315, -9.28787], [147.92517, -9.28616], [147.92197, -9.28552], [147.92017, -9.28527], [147.91818, -9.2856], [147.91576, -9.28567], [147.91413, -9.28666], [147.91326, -9.28811], [147.91365, -9.28956], [147.91485, -9.29184], [147.91523, -9.29397], [147.91453, -9.29555], [147.91354, -9.2965], [147.90973, -9.29845], [147.90776, -9.29783], [147.90552, -9.29641], [147.90255, -9.29555], [147.90183, -9.29344], [147.903, -9.2903], [147.90332, -9.2887], [147.903, -9.28739], [147.90201, -9.28576], [147.90026, -9.2849], [147.89849, -9.28445], [147.89365, -9.28428], [147.89236, -9.28375], [147.88998, -9.28088], [147.88841, -9.27968], [147.88743, -9.27903], [147.8855, -9.27666], [147.88331, -9.27472], [147.8822, -9.27357], [147.88168, -9.2716], [147.88176, -9.26996], [147.88155, -9.26857], [147.88001, -9.26763], [147.87881, -9.26702], [147.87705, -9.26683], [147.87672, -9.26557], [147.87547, -9.26414], [147.87405, -9.26319], [147.87179, -9.26187], [147.86944, -9.26038], [147.86728, -9.25808], [147.86402, -9.25405], [147.86362, -9.2524], [147.86409, -9.24956], [147.86443, -9.24728], [147.86296, -9.24571], [147.86098, -9.24437], [147.85957, -9.24267], [147.85919, -9.24086], [147.86042, -9.23859], [147.86007, -9.2371], [147.85869, -9.23571], [147.85687, -9.23481], [147.85414, -9.23208], [147.85359, -9.22951], [147.85281, -9.22717], [147.85205, -9.22637], [147.85122, -9.2242], [147.85045, -9.22211], [147.85097, -9.22067], [147.85204, -9.21926], [147.8528, -9.21676], [147.85287, -9.21349], [147.85244, -9.20994], [147.85154, -9.20688], [147.85122, -9.20483], [147.85186, -9.20121], [147.85226, -9.19733], [147.85238, -9.19537], [147.85178, -9.19392], [147.84998, -9.19264], [147.84759, -9.19156], [147.84476, -9.18875], [147.84444, -9.18651], [147.84393, -9.18515], [147.8424, -9.18362], [147.84252, -9.18193], [147.84321, -9.18105], [147.843, -9.18011], [147.84133, -9.17784], [147.83969, -9.17646], [147.8379, -9.17217], [147.83646, -9.17052], [147.83574, -9.16815], [147.83465, -9.16632], [147.83449, -9.16472], [147.83326, -9.16108], [147.83211, -9.16072], [147.83076, -9.16067], [147.82821, -9.16089], [147.8252, -9.16091], [147.82325, -9.16171], [147.82083, -9.16134], [147.81922, -9.16053], [147.81811, -9.16063], [147.81647, -9.16185], [147.81489, -9.16151], [147.81413, -9.15979], [147.8141, -9.15788], [147.81476, -9.15599], [147.81574, -9.15455], [147.81591, -9.15372], [147.81476, -9.15323], [147.81331, -9.15422], [147.80954, -9.15538], [147.80615, -9.15664], [147.80346, -9.15647], [147.79834, -9.15538], [147.79665, -9.15581], [147.79455, -9.15808], [147.79164, -9.16322], [147.78891, -9.1648], [147.7868, -9.16586], [147.78472, -9.16787], [147.78122, -9.17012], [147.77736, -9.17171], [147.7741, -9.17152], [147.77255, -9.17085], [147.77042, -9.17015], [147.76826, -9.16925], [147.76591, -9.16792], [147.76394, -9.1675], [147.76226, -9.16806], [147.75743, -9.17048], [147.75607, -9.17023], [147.75339, -9.169], [147.75207, -9.16854], [147.74382, -9.16661], [147.74323, -9.16523], [147.74389, -9.1629], [147.74395, -9.16044], [147.74411, -9.15845], [147.74379, -9.15624], [147.74075, -9.14734], [147.74054, -9.14568], [147.74086, -9.14391], [147.7418, -9.14171], [147.74228, -9.13989], [147.74275, -9.13508], [147.7435, -9.133], [147.74344, -9.13048], [147.74339, -9.12823], [147.74372, -9.12659], [147.74379, -9.12445], [147.74297, -9.12314], [147.7414, -9.12161], [147.74081, -9.11872], [147.74001, -9.11628], [147.73888, -9.11273], [147.73773, -9.10858], [147.73638, -9.10603], [147.73507, -9.10486], [147.73178, -9.10357], [147.73043, -9.10216], [147.72928, -9.10036], [147.72856, -9.09829], [147.72731, -9.09723], [147.72491, -9.09609], [147.72112, -9.09473], [147.7154, -9.09203], [147.71464, -9.0913], [147.71484, -9.08679], [147.71476, -9.08433], [147.71407, -9.08194], [147.71311, -9.07953], [147.7121, -9.07775], [147.71183, -9.07386], [147.71124, -9.07257], [147.71007, -9.07115], [147.70871, -9.06692], [147.70779, -9.06558], [147.70486, -9.06481], [147.70366, -9.06352], [147.70086, -9.06173], [147.69934, -9.06004], [147.69928, -9.05843], [147.70054, -9.05589], [147.70093, -9.05359], [147.70168, -9.05091], [147.70179, -9.04826], [147.70091, -9.04553], [147.70059, -9.04363], [147.70063, -9.04185], [147.70037, -9.04004], [147.69921, -9.03844], [147.69731, -9.03773], [147.69488, -9.03696], [147.69371, -9.03543], [147.69198, -9.03449], [147.68942, -9.03478], [147.68654, -9.03589], [147.68467, -9.0354], [147.68355, -9.03426], [147.68318, -9.03265], [147.68243, -9.02829], [147.6821, -9.02649], [147.68128, -9.02483], [147.68016, -9.0241], [147.67788, -9.02322], [147.67573, -9.02255], [147.67439, -9.02124], [147.67392, -9.0199], [147.67386, -9.01822], [147.67417, -9.01626], [147.67434, -9.01455], [147.67367, -9.01385], [147.67188, -9.01286], [147.67133, -9.01185], [147.67084, -9.01], [147.66975, -9.00907], [147.66786, -9.00776], [147.66644, -9.00593], [147.66497, -9.00373], [147.66194, -9.00065], [147.66041, -8.99857], [147.6595, -8.99964], [147.65838, -8.99725], [147.65657, -8.99516], [147.65457, -8.993], [147.65265, -8.99115], [147.64968, -8.98973], [147.64734, -8.9885], [147.64481, -8.98604], [147.64315, -8.98421], [147.64277, -8.98073], [147.64282, -8.97515], [147.64296, -8.97078], [147.64222, -8.96917], [147.64101, -8.96732], [147.63875, -8.96802], [147.6357, -8.96746], [147.63272, -8.96717], [147.63125, -8.96542], [147.62936, -8.96512], [147.62765, -8.96503], [147.62397, -8.96625], [147.62105, -8.9663], [147.61716, -8.96555], [147.61375, -8.96503], [147.61089, -8.96266], [147.60752, -8.96148], [147.6027, -8.95932], [147.59834, -8.95808], [147.59517, -8.95931], [147.59387, -8.96133], [147.59235, -8.96296], [147.59223, -8.96404], [147.59072, -8.96454], [147.58673, -8.96332], [147.5822, -8.96238], [147.57828, -8.96247], [147.57263, -8.96208], [147.56895, -8.96178], [147.56587, -8.95964], [147.56324, -8.95646], [147.56022, -8.9534], [147.55675, -8.95177], [147.55526, -8.94985], [147.55355, -8.94696], [147.55245, -8.94181], [147.55232, -8.9367], [147.55154, -8.93294], [147.55166, -8.92971], [147.55264, -8.9278], [147.55515, -8.92505], [147.55643, -8.92363], [147.55739, -8.91961], [147.56371, -8.9096], [147.56443, -8.90796], [147.56407, -8.90695], [147.56214, -8.90594], [147.55933, -8.90541], [147.55214, -8.90612], [147.5504, -8.90594], [147.54979, -8.90462], [147.55005, -8.90331], [147.54859, -8.90092], [147.54443, -8.89852], [147.54015, -8.8968], [147.53627, -8.89574], [147.53266, -8.89415], [147.53042, -8.89094], [147.52836, -8.88845], [147.52615, -8.8857], [147.52395, -8.88302], [147.52367, -8.88237], [147.52124, -8.87656], [147.5159, -8.87196], [147.51435, -8.86995], [147.51387, -8.86714], [147.51233, -8.86367], [147.51268, -8.86045], [147.50907, -8.8544], [147.50707, -8.85079], [147.50603, -8.8494], [147.50525, -8.84709], [147.50366, -8.8447], [147.50265, -8.84329], [147.50182, -8.84142], [147.50222, -8.83912], [147.50254, -8.83718], [147.50214, -8.83569], [147.50179, -8.83441], [147.50166, -8.83197], [147.50229, -8.82964], [147.50267, -8.82762], [147.50237, -8.82575], [147.50176, -8.82404], [147.50069, -8.82249], [147.4989, -8.82029], [147.49746, -8.81831], [147.4917, -8.81531], [147.49042, -8.81429], [147.48987, -8.81341], [147.48826, -8.81273], [147.48668, -8.81253], [147.48508, -8.81207], [147.48325, -8.81041], [147.48015, -8.80883], [147.47903, -8.80765], [147.47894, -8.80551], [147.47839, -8.80422], [147.47574, -8.80374], [147.47457, -8.80351], [147.47296, -8.80147], [147.47183, -8.79869], [147.47102, -8.79623], [147.46948, -8.79502], [147.46659, -8.79376], [147.46382, -8.79277], [147.46267, -8.79196], [147.4611, -8.78972], [147.45986, -8.7891], [147.45835, -8.78768], [147.45643, -8.78672], [147.45669, -8.78576], [147.45736, -8.78492], [147.45763, -8.7839], [147.45702, -8.78232], [147.45614, -8.78081], [147.4563, -8.77722], [147.45663, -8.77542], [147.45726, -8.77266], [147.45841, -8.77189], [147.45936, -8.77063], [147.45947, -8.76896], [147.45914, -8.76758], [147.46035, -8.766], [147.46305, -8.76229], [147.46422, -8.75998], [147.46422, -8.75798], [147.46521, -8.75598], [147.46735, -8.75443], [147.4694, -8.75301], [147.47096, -8.75272], [147.47136, -8.75135], [147.47239, -8.75081], [147.47313, -8.74956], [147.47563, -8.7494], [147.48009, -8.74934], [147.48031, -8.7487], [147.47916, -8.74805], [147.47844, -8.74648], [147.47822, -8.74563], [147.47729, -8.7447], [147.47799, -8.74294], [147.47745, -8.74206], [147.47572, -8.73957], [147.47457, -8.73979], [147.47258, -8.73896], [147.47122, -8.74016], [147.46688, -8.73884], [147.46605, -8.73818], [147.46521, -8.73753], [147.46418, -8.73744], [147.46267, -8.73641], [147.46147, -8.73454], [147.4588, -8.73411], [147.45726, -8.73375], [147.45187, -8.73464], [147.45066, -8.73344], [147.44924, -8.73227], [147.44795, -8.73253], [147.44672, -8.73255], [147.44547, -8.73204], [147.44379, -8.73176], [147.43664, -8.73188], [147.65937, -8.54026], [147.46358, -8.34023], [147.38025, -8.36911], [147.05257, -8.04888], [147.00108, -7.99856], [147.17608, -7.99856], [147.20108, -8.04023], [147.26358, -7.99857], [147.57086, -7.99857], [147.71131, -7.99857], [147.95678, -7.99857], [147.95827, -8.00021], [147.95719, -8.00128], [147.95489, -8.00184], [147.95408, -8.00288], [147.95488, -8.00357], [147.95661, -8.00358], [147.95742, -8.003], [147.95914, -8.00301], [147.96086, -8.00451], [147.96201, -8.00625], [147.96314, -8.01166], [147.96371, -8.01282], [147.96405, -8.01455], [147.96369, -8.01858], [147.96367, -8.02203], [147.96428, -8.02488], [147.96514, -8.02895], [147.96594, -8.0301], [147.96742, -8.03506], [147.96913, -8.03852], [147.96934, -8.04486], [147.96991, -8.04624], [147.97105, -8.0474], [147.97162, -8.04913], [147.97391, -8.05202], [147.9739, -8.05467], [147.97539, -8.05755], [147.97906, -8.06183], [147.98226, -8.06679], [147.98398, -8.0691], [147.98685, -8.07107], [147.9903, -8.07259], [147.99548, -8.07376], [147.99858, -8.07377], [148.00205, -8.07252], [148.00297, -8.07172], [148.00608, -8.07173], [148.00839, -8.06978], [148.0084, -8.06863], [148.00701, -8.06828], [148.00551, -8.06943], [148.00414, -8.06827], [148.00414, -8.06769], [148.00553, -8.06597], [148.00588, -8.06424], [148.00473, -8.06309], [148.00301, -8.06228], [148.00013, -8.06226], [147.99898, -8.06111], [147.99864, -8.06018], [147.99899, -8.05788], [148.00015, -8.05673], [148.00188, -8.05709], [148.00761, -8.06229], [148.01186, -8.06519], [148.01474, -8.06578], [148.01337, -8.06347], [148.01337, -8.06255], [148.01279, -8.06197], [148.0128, -8.06082], [148.01165, -8.05943], [148.01108, -8.05828], [148.01166, -8.05713], [148.0142, -8.05714], [148.01684, -8.05738], [148.01995, -8.05854], [148.0211, -8.05947], [148.0234, -8.06005], [148.0257, -8.06006], [148.0272, -8.0603], [148.02915, -8.0618], [148.0303, -8.06204], [148.03144, -8.0632], [148.03237, -8.0632], [148.03317, -8.06378], [148.03433, -8.06321], [148.03641, -8.06091], [148.03872, -8.05747], [148.03895, -8.05689], [148.03896, -8.05574], [148.03873, -8.05551], [148.03781, -8.05574], [148.037, -8.05631], [148.03527, -8.05803], [148.03411, -8.0601], [148.03295, -8.06124], [148.03237, -8.06147], [148.03122, -8.06089], [148.03146, -8.05951], [148.03123, -8.05893], [148.0332, -8.05664], [148.0347, -8.05607], [148.03585, -8.05493], [148.03758, -8.05401], [148.03931, -8.05401], [148.043, -8.05288], [148.04392, -8.05334], [148.04575, -8.05508], [148.05023, -8.06016], [148.05253, -8.06213], [148.05482, -8.06271], [148.0554, -8.06329], [148.06, -8.06331], [148.06347, -8.06137], [148.06462, -8.06137], [148.06576, -8.06218], [148.0683, -8.06277], [148.07061, -8.06048], [148.07349, -8.06048], [148.07383, -8.06083], [148.07521, -8.06026], [148.0773, -8.05854], [148.0796, -8.05705], [148.08156, -8.05649], [148.08249, -8.05649], [148.08443, -8.05822], [148.08501, -8.05972], [148.08558, -8.0603], [148.0865, -8.06031], [148.08881, -8.05859], [148.09169, -8.05825], [148.09284, -8.05941], [148.09283, -8.06114], [148.09225, -8.06263], [148.09224, -8.06459], [148.09339, -8.06609], [148.09512, -8.0661], [148.09627, -8.06553], [148.09765, -8.06519], [148.09995, -8.06519], [148.10145, -8.06578], [148.10376, -8.06579], [148.10491, -8.06498], [148.10629, -8.06464], [148.10837, -8.06327], [148.10975, -8.0635], [148.11298, -8.06214], [148.11413, -8.06237], [148.11493, -8.06329], [148.11551, -8.0633], [148.11643, -8.06238], [148.11644, -8.0618], [148.11782, -8.06042], [148.11875, -8.05813], [148.11956, -8.05755], [148.12129, -8.05721], [148.12393, -8.05757], [148.12509, -8.05815], [148.13082, -8.06358], [148.13163, -8.06474], [148.13162, -8.06589], [148.13139, -8.06647], [148.12851, -8.06795], [148.12793, -8.06852], [148.12758, -8.06933], [148.12849, -8.07141], [148.12849, -8.07256], [148.12617, -8.07623], [148.1256, -8.07658], [148.12007, -8.07621], [148.12063, -8.07886], [148.12178, -8.08002], [148.12443, -8.08003], [148.12673, -8.08176], [148.12846, -8.08235], [148.12984, -8.08085], [148.13157, -8.08006], [148.13307, -8.08029], [148.13329, -8.0849], [148.13132, -8.08696], [148.13131, -8.08834], [148.13189, -8.08892], [148.13189, -8.09042], [148.13418, -8.09273], [148.13441, -8.09331], [148.13417, -8.09503]]], [[[148.22797, -8.48701], [148.22935, -8.48817], [148.23049, -8.49393], [148.23106, -8.49474], [148.23106, -8.49566], [148.23197, -8.49739], [148.23254, -8.49993], [148.23254, -8.50166], [148.23334, -8.50316], [148.23334, -8.50397], [148.23448, -8.5057], [148.23505, -8.51088], [148.23481, -8.51181], [148.23424, -8.51203], [148.23389, -8.5118], [148.2339, -8.51065], [148.23159, -8.50834], [148.23103, -8.50511], [148.23022, -8.50396], [148.22758, -8.50257], [148.22586, -8.4991], [148.22356, -8.49644], [148.22161, -8.49298], [148.22161, -8.49183], [148.22277, -8.48987], [148.22474, -8.48781], [148.22589, -8.48723], [148.22797, -8.48701]]], [[[148.00557, -8.05561], [148.00706, -8.05561], [148.0082, -8.05827], [148.00993, -8.06023], [148.00935, -8.06081], [148.0082, -8.06057], [148.00498, -8.05733], [148.00499, -8.05618], [148.00557, -8.05561]]], [[[149.42547, -9.5669], [149.42691, -9.5669], [149.42712, -9.56771], [149.42692, -9.56892], [149.42641, -9.56922], [149.42561, -9.56935], [149.42547, -9.56892], [149.42605, -9.56805], [149.42547, -9.56776], [149.4246, -9.56805], [149.42345, -9.56921], [149.42239, -9.56918], [149.42142, -9.56892], [149.4212, -9.5682], [149.42141, -9.56748], [149.42547, -9.5669]]], [[[149.25724, -9.49963], [149.2584, -9.50021], [149.25869, -9.5028], [149.25956, -9.50424], [149.2613, -9.50568], [149.26101, -9.50626], [149.26043, -9.50626], [149.25695, -9.50251], [149.25666, -9.50021], [149.25724, -9.49963]]], [[[149.34899, -9.51713], [149.35188, -9.51713], [149.35246, -9.5177], [149.35247, -9.51857], [149.35073, -9.51972], [149.35015, -9.51972], [149.3487, -9.5177], [149.34875, -9.51737], [149.34899, -9.51713]]], [[[148.9939, -9.06112], [148.99469, -9.06078], [148.99563, -9.06112], [148.99766, -9.06256], [148.99779, -9.06315], [148.99708, -9.06343], [148.99477, -9.06314], [148.99395, -9.06263], [148.99361, -9.06199], [148.9939, -9.06112]]], [[[149.29573, -9.50363], [149.29717, -9.50363], [149.29833, -9.50536], [149.29776, -9.50594], [149.29544, -9.50508], [149.29486, -9.5045], [149.29573, -9.50363]]], [[[148.89279, -9.06253], [148.89336, -9.06253], [148.8935, -9.06293], [148.89336, -9.06339], [148.89134, -9.06569], [148.89018, -9.06656], [148.88991, -9.06633], [148.8899, -9.06598], [148.89091, -9.06497], [148.89105, -9.06425], [148.89279, -9.06253]]], [[[149.36201, -9.51769], [149.36317, -9.51827], [149.36317, -9.51884], [149.36192, -9.51997], [149.36173, -9.52], [149.36144, -9.51856], [149.36201, -9.51769]]], [[[149.0745, -9.03779], [149.07536, -9.03779], [149.07623, -9.03866], [149.07623, -9.03909], [149.07565, -9.03952], [149.0749, -9.03909], [149.07421, -9.03837], [149.0745, -9.03779]]], [[[148.87776, -9.07865], [148.87816, -9.07849], [148.87862, -9.07865], [148.8788, -9.07958], [148.87862, -9.08038], [148.87797, -9.08051], [148.87747, -9.08038], [148.87751, -9.07944], [148.87776, -9.07865]]], [[[148.32588, -8.61545], [148.3268, -8.61603], [148.32703, -8.61753], [148.32645, -8.61752], [148.32599, -8.61677], [148.32565, -8.61602], [148.32588, -8.61545]]], [[[149.28477, -9.01465], [149.28531, -9.01461], [149.28564, -9.01508], [149.28463, -9.01583], [149.2839, -9.01609], [149.28353, -9.01581], [149.28361, -9.01551], [149.28477, -9.01465]]], [[[149.32737, -9.12956], [149.32824, -9.12956], [149.32837, -9.13022], [149.32825, -9.13072], [149.32757, -9.13085], [149.32709, -9.13072], [149.3268, -9.13014], [149.32737, -9.12956]]], [[[148.89249, -9.06541], [148.89307, -9.06541], [148.89318, -9.06581], [148.89307, -9.06627], [148.8927, -9.06665], [148.8922, -9.06684], [148.89181, -9.06664], [148.89163, -9.06627], [148.89201, -9.06574], [148.89249, -9.06541]]], [[[148.22849, -8.50487], [148.2293, -8.50488], [148.22965, -8.50533], [148.22987, -8.50603], [148.22945, -8.50616], [148.2285, -8.50581], [148.22814, -8.50545], [148.22849, -8.50487]]], [[[148.23136, -8.51064], [148.23216, -8.51088], [148.23251, -8.51122], [148.2325, -8.5118], [148.23193, -8.51203], [148.23126, -8.51167], [148.23101, -8.51122], [148.23101, -8.51087], [148.23136, -8.51064]]], [[[148.6251, -9.08815], [148.62554, -9.08825], [148.62568, -9.08849], [148.6254, -9.08931], [148.6251, -9.08965], [148.62452, -9.08964], [148.62429, -9.08907], [148.6251, -9.08815]]], [[[149.14177, -8.98909], [149.14216, -8.98888], [149.14264, -8.98909], [149.14287, -8.9896], [149.14264, -8.99024], [149.14207, -8.99024], [149.14149, -8.98966], [149.14177, -8.98909]]], [[[148.32647, -8.61234], [148.32671, -8.61231], [148.32704, -8.61257], [148.32681, -8.61349], [148.32623, -8.61407], [148.32566, -8.61372], [148.32647, -8.61234]]], [[[148.13143, -8.05437], [148.13201, -8.05438], [148.13224, -8.05495], [148.13166, -8.05552], [148.13108, -8.05552], [148.13086, -8.05495], [148.13143, -8.05437]]], [[[149.1562, -8.97007], [149.15707, -8.97064], [149.15649, -8.97122], [149.15592, -8.97064], [149.15596, -8.97025], [149.1562, -8.97007]]], [[[148.32416, -8.61233], [148.32508, -8.61234], [148.32531, -8.61291], [148.32416, -8.61291], [148.32402, -8.61261], [148.32416, -8.61233]]]]}}]}