{"type": "FeatureCollection", "metadata": {"note": "Other protected areas in Oro Province (WDPA, excl. Managalas which has its own layer). Interim/partial areas are added here with ptype:'interim'.", "crs": "EPSG:4326"}, "features": [{"type": "Feature", "properties": {"name": "Inaina", "desig": "Wildlife Management Area", "iucn": "Not Reported", "status": "Designated", "status_yr": 0, "gis_area_km2": 39.7, "ptype": "wdpa", "source": "WDPA Jun2026"}, "geometry": {"type": "Polygon", "coordinates": [[[147.048357, -8.905201], [147.045052, -8.908246], [147.042443, -8.908157], [147.041614, -8.908451], [147.040548, -8.908958], [147.039765, -8.909026], [147.039084, -8.909286], [147.036863, -8.910936], [147.035107, -8.91224], [147.033458, -8.913465], [147.032268, -8.914087], [147.031663, -8.914929], [147.030675, -8.91501], [147.029868, -8.91525], [147.028145, -8.915701], [147.0266, -8.916335], [147.023039, -8.91668], [147.019506, -8.918253], [147.016375, -8.918275], [147.013857, -8.918776], [147.012129, -8.918964], [147.010954, -8.92022], [147.010187, -8.921824], [147.007987, -8.92133], [147.004625, -8.922913], [147.002829, -8.92374], [147.001107, -8.92282], [146.998404, -8.922236], [146.996377, -8.922324], [146.991333, -8.925569], [146.988915, -8.92542], [146.985213, -8.9258], [146.98392, -8.927056], [146.981952, -8.923901], [146.979308, -8.923112], [146.978309, -8.92022], [146.976694, -8.916831], [146.980924, -8.909937], [146.984538, -8.907746], [146.985864, -8.903389], [146.989262, -8.89644], [146.991112, -8.895208], [146.995108, -8.893022], [146.996401, -8.890159], [146.997764, -8.887895], [146.999556, -8.885938], [147.002258, -8.884506], [147.003933, -8.8829], [147.004902, -8.881264], [147.008444, -8.878926], [147.009943, -8.877787], [147.011529, -8.875713], [147.012851, -8.873668], [147.015083, -8.871447], [147.01651, -8.869329], [147.017098, -8.868029], [147.019125, -8.865604], [147.021151, -8.863589], [147.021445, -8.86055], [147.022091, -8.858681], [147.024104, -8.85777], [147.027301, -8.85715], [147.027405, -8.856097], [147.028007, -8.854921], [147.028193, -8.853269], [147.02948, -8.849738], [147.029536, -8.848236], [147.030118, -8.846209], [147.030234, -8.844153], [147.030846, -8.842648], [147.030613, -8.841692], [147.033058, -8.841026], [147.034135, -8.839492], [147.034513, -8.838913], [147.034688, -8.837986], [147.034309, -8.83567], [147.035269, -8.83373], [147.036084, -8.831443], [147.037927, -8.825025], [147.042602, -8.853418], [147.050646, -8.889309], [147.053821, -8.901987], [147.050846, -8.903737], [147.048357, -8.905201]]]}}]}